{
"type": "FeatureCollection",
"name": "cochabamba_boundary",
"crs": { "type": "name", "properties": { "name": "urn:ogc:def:crs:OGC:1.3:CRS84" } },
"features": [
{ "type": "Feature", "properties": { "bbox_west": -66.2783356, "bbox_south": -17.5257851, "bbox_east": -66.0701785, "bbox_north": -17.2781245, "place_id": 4046254, "osm_type": "relation", "osm_id": 4503297, "lat": -17.4012458, "lon": -66.1675681, "class": "boundary", "type": "administrative", "place_rank": 16, "importance": 0.59597634508063113, "addresstype": "city_block", "name": "Cochabamba", "display_name": "Cochabamba, Juan De La Rosa, Molle, Cochabamba, Cercado, Cochabamba, Bolivia" }, "geometry": { "type": "Polygon", "coordinates": [ [ [ -66.2783356, -17.4633835 ], [ -66.2756966, -17.4677429 ], [ -66.2749211, -17.4701013 ], [ -66.2743301, -17.470928 ], [ -66.2739463, -17.4710931 ], [ -66.2737829, -17.471887 ], [ -66.2739417, -17.4727583 ], [ -66.2738995, -17.4728594 ], [ -66.2733901, -17.4729862 ], [ -66.2730635, -17.4733081 ], [ -66.2728868, -17.4734154 ], [ -66.2725461, -17.4739748 ], [ -66.2719848, -17.4738392 ], [ -66.2708414, -17.4748318 ], [ -66.2704956, -17.4748711 ], [ -66.2698787, -17.4759453 ], [ -66.2696032, -17.4766102 ], [ -66.2691031, -17.4770302 ], [ -66.2688703, -17.4779627 ], [ -66.2686779, -17.4781507 ], [ -66.2687574, -17.4784946 ], [ -66.2685056, -17.4786583 ], [ -66.2681853, -17.4791091 ], [ -66.2679072, -17.4793202 ], [ -66.2676563, -17.4800201 ], [ -66.2674333, -17.479971 ], [ -66.2669364, -17.4801624 ], [ -66.26564, -17.4832431 ], [ -66.2653299, -17.4842938 ], [ -66.2649236, -17.4845872 ], [ -66.2642032, -17.4850161 ], [ -66.263359, -17.4853253 ], [ -66.2623773, -17.4859613 ], [ -66.2595484, -17.4879708 ], [ -66.257605, -17.4890828 ], [ -66.2572727, -17.4893208 ], [ -66.257096, -17.4898187 ], [ -66.2569415, -17.4900598 ], [ -66.2566094, -17.4899015 ], [ -66.2560132, -17.4906865 ], [ -66.2558262, -17.4914045 ], [ -66.2556361, -17.4923119 ], [ -66.2553287, -17.4933363 ], [ -66.2549134, -17.4943697 ], [ -66.2543441, -17.495814 ], [ -66.2536314, -17.4972873 ], [ -66.2530823, -17.4976906 ], [ -66.2522141, -17.4976357 ], [ -66.2511052, -17.4997095 ], [ -66.2504096, -17.5004718 ], [ -66.2493021, -17.5008365 ], [ -66.2474682, -17.5018928 ], [ -66.2470462, -17.5018945 ], [ -66.2462962, -17.5022905 ], [ -66.2457246, -17.5023576 ], [ -66.2429086, -17.5041107 ], [ -66.2417396, -17.5040689 ], [ -66.2409222, -17.5041858 ], [ -66.2396637, -17.5048252 ], [ -66.2388237, -17.504886 ], [ -66.2379077, -17.5052687 ], [ -66.235603, -17.5045457 ], [ -66.2356248, -17.5044393 ], [ -66.2241035, -17.5044166 ], [ -66.2113441, -17.5027249 ], [ -66.2001281, -17.5057079 ], [ -66.1623063, -17.5257851 ], [ -66.1485144, -17.5197326 ], [ -66.142179, -17.5141695 ], [ -66.139177, -17.5136937 ], [ -66.1334987, -17.514801 ], [ -66.1299557, -17.5126002 ], [ -66.12821, -17.5121772 ], [ -66.1285628, -17.5050202 ], [ -66.1213706, -17.5036271 ], [ -66.1167345, -17.4983199 ], [ -66.1050459, -17.4942186 ], [ -66.1026239, -17.4898243 ], [ -66.1003623, -17.4886142 ], [ -66.0993026, -17.4886721 ], [ -66.094144, -17.4889376 ], [ -66.090997, -17.4882042 ], [ -66.0884634, -17.4855533 ], [ -66.0859394, -17.4812624 ], [ -66.0845282, -17.4784161 ], [ -66.0762674, -17.4729425 ], [ -66.0701785, -17.4689453 ], [ -66.0702132, -17.4678955 ], [ -66.0721931, -17.4629359 ], [ -66.0729327, -17.4618281 ], [ -66.0737411, -17.4603659 ], [ -66.077339, -17.4589924 ], [ -66.0778376, -17.4585947 ], [ -66.0779938, -17.4573832 ], [ -66.0781766, -17.4562821 ], [ -66.0791009, -17.4551448 ], [ -66.0807899, -17.4546178 ], [ -66.0854429, -17.4488407 ], [ -66.0861607, -17.446656 ], [ -66.0866508, -17.4460508 ], [ -66.0871008, -17.442596 ], [ -66.0880541, -17.4413914 ], [ -66.0896691, -17.4401685 ], [ -66.0906445, -17.4396354 ], [ -66.0909946, -17.4391312 ], [ -66.0912276, -17.4377023 ], [ -66.09241, -17.4350814 ], [ -66.0925168, -17.4338895 ], [ -66.0933108, -17.4334603 ], [ -66.0941879, -17.4332824 ], [ -66.0950268, -17.4329356 ], [ -66.0959734, -17.4328839 ], [ -66.0969128, -17.4332925 ], [ -66.0971511, -17.4333562 ], [ -66.0972015, -17.4333697 ], [ -66.0980953, -17.4333965 ], [ -66.0989608, -17.4332625 ], [ -66.0997295, -17.4329156 ], [ -66.0998059, -17.4319727 ], [ -66.0999381, -17.4313845 ], [ -66.1009679, -17.4305338 ], [ -66.1018739, -17.4294388 ], [ -66.1018311, -17.4282848 ], [ -66.101954, -17.4273616 ], [ -66.1015256, -17.426406 ], [ -66.1037412, -17.4251427 ], [ -66.1045068, -17.4238602 ], [ -66.1048334, -17.4230475 ], [ -66.1049134, -17.4218686 ], [ -66.106403, -17.4192567 ], [ -66.1072936, -17.4182943 ], [ -66.1085066, -17.4176122 ], [ -66.1094066, -17.4167763 ], [ -66.1100462, -17.4159836 ], [ -66.1112146, -17.4150835 ], [ -66.112064, -17.4140487 ], [ -66.1131385, -17.4131412 ], [ -66.1137913, -17.4127289 ], [ -66.114668, -17.4127719 ], [ -66.1165237, -17.4125477 ], [ -66.1180727, -17.4108591 ], [ -66.1175652, -17.4088053 ], [ -66.1175818, -17.4077434 ], [ -66.1181441, -17.4071615 ], [ -66.118521, -17.4062716 ], [ -66.1185909, -17.4061059 ], [ -66.1188708, -17.4052467 ], [ -66.1193504, -17.4047007 ], [ -66.1195496, -17.4037595 ], [ -66.1201441, -17.4023525 ], [ -66.1206668, -17.4001391 ], [ -66.1214522, -17.3992602 ], [ -66.1218344, -17.3982134 ], [ -66.1224926, -17.3968834 ], [ -66.1233037, -17.3947879 ], [ -66.1242868, -17.3933482 ], [ -66.1249066, -17.3922253 ], [ -66.1260223, -17.3902923 ], [ -66.1266409, -17.3896099 ], [ -66.1276954, -17.3893176 ], [ -66.1287354, -17.3892727 ], [ -66.1296373, -17.3874483 ], [ -66.1303931, -17.3855555 ], [ -66.1314038, -17.3843634 ], [ -66.1318519, -17.38406 ], [ -66.1335307, -17.3840246 ], [ -66.1344061, -17.3839522 ], [ -66.1347486, -17.3838664 ], [ -66.1343148, -17.3830839 ], [ -66.1336765, -17.3820092 ], [ -66.1330917, -17.3812318 ], [ -66.1326868, -17.3802968 ], [ -66.1320309, -17.3795239 ], [ -66.132341, -17.3785244 ], [ -66.1325858, -17.3781478 ], [ -66.1328139, -17.3768667 ], [ -66.1330826, -17.3753954 ], [ -66.1328317, -17.3734926 ], [ -66.132671, -17.3722326 ], [ -66.1321896, -17.3715767 ], [ -66.1311113, -17.369791 ], [ -66.1310433, -17.3685537 ], [ -66.1309198, -17.3663068 ], [ -66.1309028, -17.3644018 ], [ -66.1308972, -17.363778 ], [ -66.1308795, -17.3617914 ], [ -66.1308769, -17.361507 ], [ -66.130875, -17.3612907 ], [ -66.1308424, -17.3609408 ], [ -66.1305065, -17.3573319 ], [ -66.1297182, -17.3527181 ], [ -66.1289994, -17.3515277 ], [ -66.1286501, -17.3502835 ], [ -66.1286767, -17.3485727 ], [ -66.1295083, -17.3464604 ], [ -66.128609, -17.3450313 ], [ -66.1278856, -17.3441359 ], [ -66.1277867, -17.3426003 ], [ -66.1271935, -17.3412346 ], [ -66.1265922, -17.3403999 ], [ -66.1258074, -17.3395035 ], [ -66.1245377, -17.3381871 ], [ -66.1227327, -17.3370217 ], [ -66.1219264, -17.3352366 ], [ -66.1216257, -17.3350657 ], [ -66.1209798, -17.33499 ], [ -66.1205292, -17.3348876 ], [ -66.1200571, -17.3351539 ], [ -66.11954, -17.3354242 ], [ -66.1191344, -17.3353177 ], [ -66.1188126, -17.334949 ], [ -66.1185551, -17.3332899 ], [ -66.1183081, -17.3327476 ], [ -66.117729, -17.3318356 ], [ -66.1178155, -17.3312753 ], [ -66.1174178, -17.330627 ], [ -66.1173213, -17.330033 ], [ -66.1172891, -17.3294902 ], [ -66.117096, -17.3288655 ], [ -66.1169243, -17.3279846 ], [ -66.1163879, -17.326858 ], [ -66.1164165, -17.3263778 ], [ -66.1177397, -17.3254754 ], [ -66.1180508, -17.3249837 ], [ -66.1180401, -17.3242053 ], [ -66.117729, -17.3235806 ], [ -66.1177826, -17.3229251 ], [ -66.1180186, -17.3222081 ], [ -66.1183405, -17.3217575 ], [ -66.1181987, -17.321204 ], [ -66.1182805, -17.3205805 ], [ -66.118598, -17.3203235 ], [ -66.1184907, -17.3198934 ], [ -66.1184698, -17.3194525 ], [ -66.1190379, -17.3185926 ], [ -66.1192095, -17.3182034 ], [ -66.1194569, -17.3171063 ], [ -66.1197353, -17.3166567 ], [ -66.1198037, -17.3156241 ], [ -66.1200854, -17.3150143 ], [ -66.1206558, -17.3146538 ], [ -66.1210013, -17.3140756 ], [ -66.1218059, -17.3133791 ], [ -66.1219561, -17.3127133 ], [ -66.122116, -17.3123992 ], [ -66.1225891, -17.3119246 ], [ -66.1227372, -17.3112199 ], [ -66.1232329, -17.3108799 ], [ -66.1236675, -17.3102546 ], [ -66.1238551, -17.3093025 ], [ -66.1240912, -17.3086367 ], [ -66.124177, -17.3080733 ], [ -66.1241555, -17.3073972 ], [ -66.124456, -17.3061886 ], [ -66.1243379, -17.304816 ], [ -66.1247134, -17.3043243 ], [ -66.125046, -17.3036687 ], [ -66.1248315, -17.302163 ], [ -66.1243272, -17.3006572 ], [ -66.124413, -17.2999811 ], [ -66.1244238, -17.2995099 ], [ -66.1242414, -17.2989465 ], [ -66.1241663, -17.2983319 ], [ -66.1242833, -17.2937813 ], [ -66.125722, -17.2905774 ], [ -66.1257649, -17.2896759 ], [ -66.1259115, -17.2892298 ], [ -66.1262282, -17.2888148 ], [ -66.1264086, -17.2883647 ], [ -66.1264081, -17.2879579 ], [ -66.1265373, -17.2875451 ], [ -66.1268992, -17.2873963 ], [ -66.1272859, -17.2875879 ], [ -66.1275027, -17.2870143 ], [ -66.1278729, -17.2865666 ], [ -66.1285653, -17.2860388 ], [ -66.1294372, -17.2848679 ], [ -66.1295567, -17.2845923 ], [ -66.1297126, -17.2834551 ], [ -66.1298562, -17.2828694 ], [ -66.130286, -17.2824792 ], [ -66.131171, -17.2824336 ], [ -66.1373475, -17.2837004 ], [ -66.1562449, -17.2781245 ], [ -66.1595844, -17.2785988 ], [ -66.1598343, -17.2787376 ], [ -66.1600719, -17.2789337 ], [ -66.1602616, -17.2791526 ], [ -66.1604873, -17.2793487 ], [ -66.160701, -17.2795562 ], [ -66.1608907, -17.279775 ], [ -66.1610444, -17.2800281 ], [ -66.1611979, -17.2803041 ], [ -66.1613398, -17.2805456 ], [ -66.1615174, -17.2807873 ], [ -66.1617552, -17.2809491 ], [ -66.1620415, -17.2809849 ], [ -66.1623035, -17.2811009 ], [ -66.1624573, -17.281331 ], [ -66.1625991, -17.281584 ], [ -66.1626929, -17.2818712 ], [ -66.1627988, -17.2821355 ], [ -66.1628927, -17.2823998 ], [ -66.1629986, -17.2826641 ], [ -66.1631763, -17.2828943 ], [ -66.163378, -17.2831132 ], [ -66.1635917, -17.2833092 ], [ -66.1637935, -17.2835052 ], [ -66.1638873, -17.2838039 ], [ -66.1639453, -17.2840794 ], [ -66.1640512, -17.2843552 ], [ -66.1642289, -17.2845739 ], [ -66.1644905, -17.2847587 ], [ -66.1646922, -17.2849661 ], [ -66.1647982, -17.285219 ], [ -66.16494, -17.2854605 ], [ -66.1651177, -17.2856908 ], [ -66.1653074, -17.2859211 ], [ -66.1653655, -17.2861966 ], [ -66.1653877, -17.2864834 ], [ -66.1654337, -17.2867704 ], [ -66.1655157, -17.2870461 ], [ -66.1656934, -17.2872763 ], [ -66.1657873, -17.287552 ], [ -66.1657975, -17.2878388 ], [ -66.1657959, -17.288114 ], [ -66.1657346, -17.288389 ], [ -66.1657329, -17.2886757 ], [ -66.165791, -17.2889512 ], [ -66.1659209, -17.2891927 ], [ -66.1660388, -17.2894456 ], [ -66.1662165, -17.2896759 ], [ -66.1664061, -17.2899176 ], [ -66.1666077, -17.2901365 ], [ -66.1667855, -17.2903553 ], [ -66.1669992, -17.2905743 ], [ -66.167201, -17.2907702 ], [ -66.1674147, -17.2909663 ], [ -66.1675924, -17.2911965 ], [ -66.1677103, -17.2914494 ], [ -66.1677924, -17.2917136 ], [ -66.1678744, -17.2919778 ], [ -66.1679683, -17.2922535 ], [ -66.1680622, -17.2925292 ], [ -66.168168, -17.2927935 ], [ -66.1682979, -17.2930464 ], [ -66.1684158, -17.2932994 ], [ -66.1685576, -17.2935409 ], [ -66.1687234, -17.2937711 ], [ -66.1688892, -17.2940127 ], [ -66.169031, -17.2942657 ], [ -66.1691369, -17.2945186 ], [ -66.1692668, -17.2947601 ], [ -66.1693846, -17.2950359 ], [ -66.1695264, -17.2952889 ], [ -66.1696561, -17.2955533 ], [ -66.1697859, -17.2958292 ], [ -66.1699038, -17.2960821 ], [ -66.1700217, -17.296335 ], [ -66.1701634, -17.296588 ], [ -66.1703053, -17.2968295 ], [ -66.1705189, -17.2970485 ], [ -66.1707446, -17.2972446 ], [ -66.1710183, -17.297395 ], [ -66.1712804, -17.2974995 ], [ -66.1715544, -17.2976041 ], [ -66.1718044, -17.2977314 ], [ -66.1720659, -17.2979277 ], [ -66.1722317, -17.2981579 ], [ -66.1723376, -17.2984222 ], [ -66.1724674, -17.2986866 ], [ -66.1725973, -17.2989281 ], [ -66.1727032, -17.2991924 ], [ -66.1727613, -17.2994679 ], [ -66.1728433, -17.2997321 ], [ -66.1729491, -17.3000079 ], [ -66.1730909, -17.3002609 ], [ -66.1732926, -17.3004912 ], [ -66.1734704, -17.30071 ], [ -66.173421, -17.300985 ], [ -66.1732644, -17.3012137 ], [ -66.1730602, -17.3014306 ], [ -66.1729034, -17.301705 ], [ -66.1729137, -17.3019804 ], [ -66.1730555, -17.3022334 ], [ -66.1731614, -17.3024977 ], [ -66.1731239, -17.3027842 ], [ -66.1730624, -17.3030821 ], [ -66.1730489, -17.3033573 ], [ -66.173095, -17.3036442 ], [ -66.1732486, -17.3039088 ], [ -66.1733785, -17.3041503 ], [ -66.1734365, -17.3044373 ], [ -66.1734349, -17.3047125 ], [ -66.1734395, -17.3049437 ], [ -66.1735247, -17.3051773 ], [ -66.173551, -17.3052865 ], [ -66.173633, -17.3055507 ], [ -66.173727, -17.3058149 ], [ -66.1739047, -17.3060452 ], [ -66.1740825, -17.306264 ], [ -66.1741406, -17.3065395 ], [ -66.1740435, -17.3068028 ], [ -66.1739345, -17.3070661 ], [ -66.1738255, -17.3073293 ], [ -66.1737345, -17.3075996 ], [ -66.1737275, -17.3077647 ], [ -66.1737498, -17.30804 ], [ -66.1738318, -17.3083042 ], [ -66.1739377, -17.3085685 ], [ -66.1741514, -17.3087875 ], [ -66.1744254, -17.308892 ], [ -66.1746873, -17.3090309 ], [ -66.1748412, -17.3092611 ], [ -66.1749232, -17.3095252 ], [ -66.1749454, -17.3098006 ], [ -66.1749915, -17.3100876 ], [ -66.1750616, -17.3103517 ], [ -66.1751197, -17.3106272 ], [ -66.175118, -17.3109139 ], [ -66.175164, -17.3112124 ], [ -66.1752869, -17.3114596 ], [ -66.1753415, -17.3114885 ], [ -66.1756157, -17.3115701 ], [ -66.1758897, -17.3116746 ], [ -66.1761397, -17.311802 ], [ -66.1763895, -17.3119638 ], [ -66.1766214, -17.3121522 ], [ -66.1768168, -17.3124017 ], [ -66.1769585, -17.3126662 ], [ -66.1770645, -17.312919 ], [ -66.1771823, -17.3131834 ], [ -66.1773242, -17.3134249 ], [ -66.1775258, -17.3136667 ], [ -66.1777276, -17.3138627 ], [ -66.1779295, -17.3140586 ], [ -66.1781433, -17.3142547 ], [ -66.178345, -17.3144736 ], [ -66.1785347, -17.3147039 ], [ -66.1787244, -17.3149227 ], [ -66.1788901, -17.3151758 ], [ -66.1790679, -17.3154061 ], [ -66.1792336, -17.3156477 ], [ -66.1793844, -17.3158644 ], [ -66.1796097, -17.3162926 ], [ -66.1797891, -17.3166367 ], [ -66.1799189, -17.3169012 ], [ -66.1800367, -17.317177 ], [ -66.1801544, -17.3174643 ], [ -66.1802723, -17.3177172 ], [ -66.1804022, -17.3179701 ], [ -66.1805081, -17.3182459 ], [ -66.1806139, -17.3185216 ], [ -66.1807434, -17.3188434 ], [ -66.1808491, -17.3191536 ], [ -66.180943, -17.3194178 ], [ -66.1810728, -17.3196937 ], [ -66.1811907, -17.3199466 ], [ -66.1812967, -17.3201994 ], [ -66.1814505, -17.320441 ], [ -66.1816403, -17.3206599 ], [ -66.1817719, -17.3208854 ], [ -66.1819446, -17.3211253 ], [ -66.1820528, -17.3213561 ], [ -66.1823394, -17.3215922 ], [ -66.1824692, -17.3218567 ], [ -66.1825749, -17.3221554 ], [ -66.1827044, -17.3224657 ], [ -66.1828461, -17.3227531 ], [ -66.1829521, -17.3230059 ], [ -66.1830819, -17.3232703 ], [ -66.1832117, -17.3235347 ], [ -66.1833296, -17.3237876 ], [ -66.1834476, -17.3240405 ], [ -66.1835176, -17.3243161 ], [ -66.1835873, -17.324649 ], [ -66.1836932, -17.3249133 ], [ -66.1838471, -17.3251435 ], [ -66.1839889, -17.3254079 ], [ -66.1840949, -17.3256608 ], [ -66.1842605, -17.3259254 ], [ -66.1844384, -17.3261441 ], [ -66.1846758, -17.3263747 ], [ -66.1848777, -17.3265706 ], [ -66.1851033, -17.3268011 ], [ -66.1852691, -17.3270313 ], [ -66.1854467, -17.3272844 ], [ -66.1856006, -17.327526 ], [ -66.1857782, -17.3277907 ], [ -66.185932, -17.3280323 ], [ -66.1860857, -17.3282968 ], [ -66.1862275, -17.3285498 ], [ -66.1863575, -17.3287913 ], [ -66.1865592, -17.3290102 ], [ -66.1867851, -17.3291833 ], [ -66.1870484, -17.3293448 ], [ -66.1871509, -17.3339634 ], [ -66.1872155, -17.3368726 ], [ -66.1871817, -17.3383102 ], [ -66.1871038, -17.3415407 ], [ -66.1870364, -17.3430113 ], [ -66.1870805, -17.3432078 ], [ -66.1902644, -17.3524952 ], [ -66.1934663, -17.360631 ], [ -66.1982691, -17.374524 ], [ -66.2073888, -17.3708878 ], [ -66.2074814, -17.376235 ], [ -66.2075172, -17.3796355 ], [ -66.2075434, -17.3798233 ], [ -66.2078993, -17.3808908 ], [ -66.2082303, -17.3819729 ], [ -66.2081924, -17.3821846 ], [ -66.2079851, -17.3829744 ], [ -66.207959, -17.3844845 ], [ -66.2079658, -17.3863359 ], [ -66.2080174, -17.3895768 ], [ -66.2081548, -17.3919976 ], [ -66.2081782, -17.3925183 ], [ -66.2083287, -17.395402 ], [ -66.2083547, -17.3954678 ], [ -66.2084193, -17.3955034 ], [ -66.2099814, -17.3956033 ], [ -66.2101653, -17.395682 ], [ -66.2103799, -17.3958614 ], [ -66.2107809, -17.3962272 ], [ -66.2109896, -17.396358 ], [ -66.2128034, -17.396834 ], [ -66.2136107, -17.3971478 ], [ -66.2142462, -17.3971206 ], [ -66.2149476, -17.3977825 ], [ -66.215384, -17.3983894 ], [ -66.2162529, -17.3996364 ], [ -66.214471, -17.3996774 ], [ -66.2152576, -17.4044274 ], [ -66.2165842, -17.4159047 ], [ -66.2179052, -17.4250243 ], [ -66.2205882, -17.4255614 ], [ -66.221341, -17.425631 ], [ -66.2223693, -17.4254411 ], [ -66.2229662, -17.4251848 ], [ -66.2233234, -17.4248839 ], [ -66.2235588, -17.4242391 ], [ -66.2238189, -17.423732 ], [ -66.2241743, -17.4231324 ], [ -66.2242673, -17.4226952 ], [ -66.2242644, -17.4222357 ], [ -66.2243792, -17.4214537 ], [ -66.2243501, -17.4206266 ], [ -66.2250606, -17.4185149 ], [ -66.2259913, -17.4171832 ], [ -66.2272568, -17.4165639 ], [ -66.229443, -17.4165135 ], [ -66.2312331, -17.4167787 ], [ -66.232276, -17.4186439 ], [ -66.237557, -17.4234645 ], [ -66.2376168, -17.4234984 ], [ -66.2389283, -17.4236517 ], [ -66.2402433, -17.4235799 ], [ -66.2429136, -17.425478 ], [ -66.245593, -17.4273605 ], [ -66.2524891, -17.443145 ], [ -66.2614632, -17.4493725 ], [ -66.2706813, -17.4555069 ], [ -66.2783356, -17.4633835 ] ] ] } }
]
}
