{
"type": "FeatureCollection",
"name": "leuven_boundary",
"crs": { "type": "name", "properties": { "name": "urn:ogc:def:crs:OGC:1.3:CRS84" } },
"features": [
{ "type": "Feature", "properties": { "bbox_west": 4.6403072, "bbox_south": 50.8242081, "bbox_east": 4.7704248, "bbox_north": 50.9440737, "place_id": 106054417, "osm_type": "relation", "osm_id": 196311, "lat": 50.879202, "lon": 4.7011675, "class": "boundary", "type": "administrative", "place_rank": 14, "importance": 0.65286249644076888, "addresstype": "city", "name": "Leuven", "display_name": "Leuven, Flemish Brabant, Flanders, Belgium" }, "geometry": { "type": "Polygon", "coordinates": [ [ [ 4.6403072, 50.8558609 ], [ 4.6406247, 50.8555987 ], [ 4.6406603, 50.8555541 ], [ 4.641021, 50.852911 ], [ 4.6419812, 50.852125 ], [ 4.6426655, 50.852329 ], [ 4.6440287, 50.8515863 ], [ 4.6452832, 50.8508263 ], [ 4.6457017, 50.8505726 ], [ 4.6460814, 50.8500631 ], [ 4.6459976, 50.8494442 ], [ 4.6459386, 50.8490004 ], [ 4.6463541, 50.8489929 ], [ 4.6468883, 50.8489798 ], [ 4.6463766, 50.848241 ], [ 4.6465377, 50.848178 ], [ 4.6467958, 50.8484304 ], [ 4.6479553, 50.848114 ], [ 4.6480629, 50.8482771 ], [ 4.6494059, 50.8479192 ], [ 4.649448, 50.8479996 ], [ 4.6496932, 50.8484325 ], [ 4.6499025, 50.8486101 ], [ 4.6501162, 50.848791 ], [ 4.6501197, 50.8488072 ], [ 4.6496354, 50.8490791 ], [ 4.6494515, 50.8491973 ], [ 4.6489934, 50.8494871 ], [ 4.6490461, 50.8495524 ], [ 4.6491606, 50.8497048 ], [ 4.6495337, 50.8494887 ], [ 4.6508183, 50.8500679 ], [ 4.6510874, 50.8502122 ], [ 4.6513192, 50.8503464 ], [ 4.651659, 50.8505754 ], [ 4.6519834, 50.8508033 ], [ 4.6520533, 50.8508514 ], [ 4.6539068, 50.8520823 ], [ 4.6540516, 50.8521679 ], [ 4.6541297, 50.852231 ], [ 4.6545069, 50.8525809 ], [ 4.6554451, 50.8521619 ], [ 4.6546406, 50.851626 ], [ 4.6547135, 50.8515815 ], [ 4.6578466, 50.8495174 ], [ 4.6573458, 50.8492571 ], [ 4.6577218, 50.849029 ], [ 4.6581677, 50.8489666 ], [ 4.6585003, 50.8487785 ], [ 4.6588161, 50.8483831 ], [ 4.6588643, 50.8482589 ], [ 4.6587747, 50.847803 ], [ 4.6587188, 50.8476133 ], [ 4.6587163, 50.8475508 ], [ 4.6587323, 50.8475189 ], [ 4.6587868, 50.8474749 ], [ 4.6588285, 50.8474558 ], [ 4.6589657, 50.8474087 ], [ 4.6590117, 50.8473873 ], [ 4.6595676, 50.8473648 ], [ 4.6599687, 50.847364 ], [ 4.6600094, 50.8474158 ], [ 4.6600686, 50.8475828 ], [ 4.6601989, 50.8479375 ], [ 4.6605392, 50.8486356 ], [ 4.6607169, 50.848871 ], [ 4.6608493, 50.8489474 ], [ 4.661112, 50.8490288 ], [ 4.6612731, 50.8490523 ], [ 4.6613891, 50.8490392 ], [ 4.6615643, 50.848993 ], [ 4.6616935, 50.8489561 ], [ 4.6618265, 50.8488526 ], [ 4.6618197, 50.8486157 ], [ 4.6618224, 50.8485605 ], [ 4.6618299, 50.8485511 ], [ 4.6619321, 50.8486979 ], [ 4.6620886, 50.849092 ], [ 4.6621103, 50.8491585 ], [ 4.6621399, 50.8493008 ], [ 4.6621476, 50.8493202 ], [ 4.6621673, 50.8493344 ], [ 4.6621941, 50.8493453 ], [ 4.6622207, 50.8493496 ], [ 4.6622538, 50.8493487 ], [ 4.6622905, 50.8493296 ], [ 4.6625062, 50.8492351 ], [ 4.6627253, 50.8489445 ], [ 4.6627491, 50.8489195 ], [ 4.662788, 50.8487766 ], [ 4.6626434, 50.848372 ], [ 4.6627465, 50.8483668 ], [ 4.6632267, 50.8483522 ], [ 4.663886, 50.8483414 ], [ 4.664097, 50.8483512 ], [ 4.6648885, 50.8486352 ], [ 4.6651024, 50.8487747 ], [ 4.6652026, 50.8488987 ], [ 4.6653967, 50.8492415 ], [ 4.6654716, 50.8493107 ], [ 4.6657248, 50.8495308 ], [ 4.6659624, 50.8497146 ], [ 4.6662494, 50.8499972 ], [ 4.6666298, 50.8504483 ], [ 4.6667005, 50.8505915 ], [ 4.666759, 50.8506726 ], [ 4.6667912, 50.8507507 ], [ 4.666859, 50.8508795 ], [ 4.6670005, 50.8510752 ], [ 4.6670503, 50.8511314 ], [ 4.6671285, 50.8512592 ], [ 4.6672538, 50.851453 ], [ 4.6676403, 50.8519878 ], [ 4.6677781, 50.8521453 ], [ 4.6680234, 50.8522535 ], [ 4.6681425, 50.852261 ], [ 4.6683142, 50.8522501 ], [ 4.6687084, 50.8521812 ], [ 4.6692083, 50.8521258 ], [ 4.6693477, 50.8521292 ], [ 4.6695665, 50.8521549 ], [ 4.6698332, 50.8517495 ], [ 4.6699346, 50.8517144 ], [ 4.6701019, 50.8517525 ], [ 4.6702129, 50.8518279 ], [ 4.6704075, 50.8519145 ], [ 4.6706038, 50.8519725 ], [ 4.6709111, 50.8520103 ], [ 4.6710573, 50.8520353 ], [ 4.6710947, 50.8520194 ], [ 4.6713458, 50.8519113 ], [ 4.6715319, 50.8519588 ], [ 4.671535, 50.851964 ], [ 4.6723672, 50.8516521 ], [ 4.6724662, 50.8516066 ], [ 4.6741953, 50.8508942 ], [ 4.6741626, 50.8507963 ], [ 4.6737787, 50.8503215 ], [ 4.6737858, 50.8502258 ], [ 4.6738077, 50.8501175 ], [ 4.6741257, 50.8499241 ], [ 4.6742744, 50.8498481 ], [ 4.6742005, 50.8497699 ], [ 4.6741369, 50.8497162 ], [ 4.6738386, 50.8494409 ], [ 4.673469, 50.849138 ], [ 4.6750888, 50.8482482 ], [ 4.6757989, 50.8478956 ], [ 4.6766324, 50.8471684 ], [ 4.6746244, 50.8443617 ], [ 4.6741893, 50.8430232 ], [ 4.6739514, 50.8416815 ], [ 4.6742005, 50.8416646 ], [ 4.6743245, 50.8416543 ], [ 4.6745212, 50.8416352 ], [ 4.6745909, 50.8417382 ], [ 4.6746154, 50.8417687 ], [ 4.6747779, 50.8417439 ], [ 4.6752081, 50.8416498 ], [ 4.6754758, 50.8415354 ], [ 4.6756304, 50.8414491 ], [ 4.6757327, 50.8413908 ], [ 4.6757882, 50.841367 ], [ 4.6756459, 50.841145 ], [ 4.6756224, 50.8409104 ], [ 4.6756351, 50.8407853 ], [ 4.6756284, 50.8407216 ], [ 4.6756281, 50.8406641 ], [ 4.6756012, 50.8406108 ], [ 4.6755902, 50.8405971 ], [ 4.6755631, 50.8405717 ], [ 4.6754357, 50.8403637 ], [ 4.6752229, 50.8404042 ], [ 4.6751617, 50.8401585 ], [ 4.6748243, 50.8401876 ], [ 4.674927, 50.8398474 ], [ 4.6750377, 50.8395675 ], [ 4.6750427, 50.8395297 ], [ 4.6750355, 50.8395077 ], [ 4.6750209, 50.8394827 ], [ 4.6750125, 50.8394736 ], [ 4.6749966, 50.8394646 ], [ 4.6749255, 50.8394321 ], [ 4.6748792, 50.8394149 ], [ 4.6747349, 50.8393658 ], [ 4.674672, 50.8393559 ], [ 4.6752467, 50.8382092 ], [ 4.6727362, 50.8377124 ], [ 4.6727005, 50.8377884 ], [ 4.6723117, 50.8385466 ], [ 4.6721696, 50.8385034 ], [ 4.6721079, 50.8384834 ], [ 4.6720525, 50.8384667 ], [ 4.6719824, 50.8384428 ], [ 4.6717026, 50.8381421 ], [ 4.6714613, 50.8376073 ], [ 4.6713919, 50.8372367 ], [ 4.6713895, 50.8369374 ], [ 4.6713717, 50.8366045 ], [ 4.6712277, 50.8362037 ], [ 4.6711791, 50.8360813 ], [ 4.6711768, 50.8360455 ], [ 4.6710539, 50.8355229 ], [ 4.6709805, 50.8355313 ], [ 4.6709188, 50.8355318 ], [ 4.6705926, 50.83551 ], [ 4.6704104, 50.8354896 ], [ 4.6701378, 50.8354605 ], [ 4.6702092, 50.8353719 ], [ 4.6702273, 50.8353277 ], [ 4.6702679, 50.8352964 ], [ 4.6703032, 50.8352459 ], [ 4.6703813, 50.8350726 ], [ 4.6704219, 50.8350102 ], [ 4.6705478, 50.8348656 ], [ 4.6707839, 50.8346942 ], [ 4.6709181, 50.8346522 ], [ 4.6710538, 50.8345719 ], [ 4.6710588, 50.8344124 ], [ 4.6710837, 50.8341579 ], [ 4.6714896, 50.83364 ], [ 4.6703175, 50.8331711 ], [ 4.6705631, 50.833001 ], [ 4.6709079, 50.8327663 ], [ 4.6710802, 50.8328638 ], [ 4.6715454, 50.8323383 ], [ 4.6727212, 50.8328796 ], [ 4.6729057, 50.8326798 ], [ 4.6728811, 50.8324977 ], [ 4.6727553, 50.8324029 ], [ 4.6726649, 50.8323271 ], [ 4.6725633, 50.8322389 ], [ 4.6722871, 50.8319743 ], [ 4.6724848, 50.8318535 ], [ 4.672731, 50.8317918 ], [ 4.6728037, 50.83171 ], [ 4.6731903, 50.8315401 ], [ 4.6739332, 50.8310721 ], [ 4.6740775, 50.8308982 ], [ 4.6741984, 50.8307076 ], [ 4.6742525, 50.8305762 ], [ 4.6742642, 50.8304272 ], [ 4.6746832, 50.8302687 ], [ 4.6749494, 50.8301572 ], [ 4.6750414, 50.8301031 ], [ 4.6750987, 50.8300611 ], [ 4.6752399, 50.8299114 ], [ 4.6753381, 50.8297822 ], [ 4.6753572, 50.8297451 ], [ 4.6753572, 50.8296999 ], [ 4.6753277, 50.8296507 ], [ 4.6752305, 50.8295394 ], [ 4.6752189, 50.829524 ], [ 4.6752206, 50.8295073 ], [ 4.6751761, 50.8293763 ], [ 4.67498, 50.8291301 ], [ 4.6748622, 50.8290346 ], [ 4.6746829, 50.8291362 ], [ 4.6744918, 50.8290421 ], [ 4.6744112, 50.8290211 ], [ 4.6741894, 50.8289908 ], [ 4.6741083, 50.8289714 ], [ 4.6738842, 50.8288567 ], [ 4.6738121, 50.8288152 ], [ 4.6737587, 50.8287822 ], [ 4.6736576, 50.8287148 ], [ 4.6735537, 50.8286394 ], [ 4.6735177, 50.8285778 ], [ 4.6737796, 50.8283073 ], [ 4.6735139, 50.8282297 ], [ 4.6730062, 50.8280754 ], [ 4.6728887, 50.8280574 ], [ 4.6728222, 50.8280615 ], [ 4.6727474, 50.8280704 ], [ 4.6727191, 50.8280799 ], [ 4.6726966, 50.8280917 ], [ 4.6726502, 50.828124 ], [ 4.6724747, 50.8282754 ], [ 4.6710846, 50.8278787 ], [ 4.6710234, 50.8278317 ], [ 4.6707551, 50.8277299 ], [ 4.6702705, 50.8276111 ], [ 4.6699147, 50.8275766 ], [ 4.6698, 50.8275585 ], [ 4.6693221, 50.8274668 ], [ 4.6692185, 50.827427 ], [ 4.6686489, 50.8273266 ], [ 4.6684214, 50.8273441 ], [ 4.667857, 50.8270066 ], [ 4.6672797, 50.8264364 ], [ 4.6662446, 50.8262443 ], [ 4.6658729, 50.8264484 ], [ 4.6656665, 50.826539 ], [ 4.6654799, 50.8267765 ], [ 4.6653874, 50.8269374 ], [ 4.6651334, 50.8272996 ], [ 4.6647851, 50.8269604 ], [ 4.6643163, 50.8265424 ], [ 4.6634906, 50.8259302 ], [ 4.6635981, 50.8257263 ], [ 4.6638984, 50.8251339 ], [ 4.663984, 50.8249963 ], [ 4.6640716, 50.8248935 ], [ 4.664143, 50.8248202 ], [ 4.6642269, 50.8247534 ], [ 4.6643972, 50.8246629 ], [ 4.6644898, 50.8246233 ], [ 4.6645883, 50.8245895 ], [ 4.664681, 50.8245643 ], [ 4.6647995, 50.8245413 ], [ 4.664882, 50.8245287 ], [ 4.6657763, 50.8244138 ], [ 4.6658542, 50.8243985 ], [ 4.6658789, 50.8243948 ], [ 4.6663419, 50.8242491 ], [ 4.6663942, 50.824228 ], [ 4.666531, 50.8242081 ], [ 4.6666277, 50.8242391 ], [ 4.6667252, 50.8242621 ], [ 4.666887, 50.8242914 ], [ 4.6669654, 50.8243011 ], [ 4.66713, 50.8243131 ], [ 4.6672427, 50.8243261 ], [ 4.6673904, 50.8243463 ], [ 4.6674839, 50.8243554 ], [ 4.6676173, 50.8243753 ], [ 4.6676908, 50.8243803 ], [ 4.6678773, 50.8243857 ], [ 4.6679692, 50.8243931 ], [ 4.6681688, 50.8244357 ], [ 4.6683245, 50.8244831 ], [ 4.6683521, 50.8244954 ], [ 4.6683948, 50.8245345 ], [ 4.6684516, 50.8245995 ], [ 4.6685066, 50.8246632 ], [ 4.6685537, 50.8247272 ], [ 4.6686356, 50.8248044 ], [ 4.6686721, 50.8248282 ], [ 4.6687234, 50.8248539 ], [ 4.6688319, 50.8248977 ], [ 4.6688955, 50.8249057 ], [ 4.6689614, 50.8249056 ], [ 4.6691132, 50.8248875 ], [ 4.6692978, 50.82487 ], [ 4.6694556, 50.8248623 ], [ 4.6695749, 50.824867 ], [ 4.6696979, 50.8248816 ], [ 4.6697702, 50.8248923 ], [ 4.6699021, 50.8249179 ], [ 4.6700642, 50.8249522 ], [ 4.6701349, 50.8249634 ], [ 4.6701813, 50.8249658 ], [ 4.6703596, 50.8249482 ], [ 4.6705299, 50.8249313 ], [ 4.6707295, 50.8249179 ], [ 4.6708057, 50.8249185 ], [ 4.6709753, 50.8249314 ], [ 4.6710792, 50.8249453 ], [ 4.6711114, 50.8249462 ], [ 4.6711768, 50.824945 ], [ 4.6712887, 50.8249211 ], [ 4.6715512, 50.8248449 ], [ 4.6717575, 50.8248129 ], [ 4.6718837, 50.8248047 ], [ 4.6720647, 50.8247948 ], [ 4.6723183, 50.8248528 ], [ 4.6724472, 50.824856 ], [ 4.6725658, 50.8248532 ], [ 4.6728737, 50.8248631 ], [ 4.6733258, 50.8249047 ], [ 4.6734404, 50.8249179 ], [ 4.6734849, 50.8249188 ], [ 4.6735782, 50.8249321 ], [ 4.6736645, 50.8249513 ], [ 4.6738017, 50.8249643 ], [ 4.6739853, 50.8249796 ], [ 4.6740928, 50.8250262 ], [ 4.6741729, 50.8250478 ], [ 4.674274, 50.8250862 ], [ 4.6742928, 50.8250973 ], [ 4.6745086, 50.8251918 ], [ 4.6746063, 50.8252278 ], [ 4.6747795, 50.8252827 ], [ 4.6748724, 50.8253075 ], [ 4.6750451, 50.8253347 ], [ 4.6751719, 50.8253205 ], [ 4.6753, 50.8252952 ], [ 4.6753553, 50.8252913 ], [ 4.675444, 50.8252917 ], [ 4.6755231, 50.825295 ], [ 4.6756581, 50.82531 ], [ 4.6757838, 50.8253175 ], [ 4.6758839, 50.8253167 ], [ 4.6760469, 50.8253226 ], [ 4.6761053, 50.8253268 ], [ 4.6761176, 50.8253308 ], [ 4.6761862, 50.8253451 ], [ 4.6762658, 50.8253558 ], [ 4.6765119, 50.8253793 ], [ 4.6770721, 50.8254357 ], [ 4.6773872, 50.8254391 ], [ 4.677809, 50.8254489 ], [ 4.6779798, 50.8254447 ], [ 4.6784746, 50.8254075 ], [ 4.6788333, 50.825434 ], [ 4.6792241, 50.8255676 ], [ 4.6793911, 50.8256278 ], [ 4.6795811, 50.8257041 ], [ 4.6796154, 50.8257136 ], [ 4.6796783, 50.8257272 ], [ 4.6800744, 50.8257778 ], [ 4.68026, 50.825831 ], [ 4.6803372, 50.8258591 ], [ 4.6805523, 50.8259434 ], [ 4.6808172, 50.826078 ], [ 4.6809233, 50.8261157 ], [ 4.6809838, 50.8261317 ], [ 4.6812791, 50.8261858 ], [ 4.6812897, 50.8261539 ], [ 4.6814291, 50.8260683 ], [ 4.6821564, 50.8259304 ], [ 4.68292, 50.8258603 ], [ 4.6830172, 50.8258384 ], [ 4.6831192, 50.8257717 ], [ 4.6832766, 50.8257273 ], [ 4.6833365, 50.8256962 ], [ 4.6834403, 50.8256156 ], [ 4.6835212, 50.8255868 ], [ 4.6843981, 50.8255759 ], [ 4.6844072, 50.8258974 ], [ 4.685454, 50.826001 ], [ 4.6855505, 50.8260011 ], [ 4.6856467, 50.8260014 ], [ 4.6856126, 50.8261388 ], [ 4.6852417, 50.8266915 ], [ 4.6850849, 50.8269494 ], [ 4.6849724, 50.8270943 ], [ 4.6846368, 50.8275013 ], [ 4.6845351, 50.8276303 ], [ 4.6845111, 50.8276765 ], [ 4.6844894, 50.8277666 ], [ 4.6844822, 50.8277968 ], [ 4.6844785, 50.8278186 ], [ 4.6844854, 50.8278323 ], [ 4.6848938, 50.8280198 ], [ 4.6850143, 50.8280779 ], [ 4.6851861, 50.8281538 ], [ 4.6852116, 50.8281521 ], [ 4.6855215, 50.8282957 ], [ 4.6856018, 50.8283285 ], [ 4.6856317, 50.8283337 ], [ 4.6856843, 50.8283367 ], [ 4.685743, 50.8283314 ], [ 4.6857828, 50.828346 ], [ 4.6858081, 50.8283371 ], [ 4.6858746, 50.8283305 ], [ 4.6861559, 50.8284383 ], [ 4.6863874, 50.8285355 ], [ 4.6864085, 50.8285719 ], [ 4.6863817, 50.8285913 ], [ 4.6863282, 50.8286368 ], [ 4.6859751, 50.8289188 ], [ 4.6858882, 50.8290046 ], [ 4.6857273, 50.8295844 ], [ 4.6857333, 50.8296941 ], [ 4.6857068, 50.8298936 ], [ 4.6856776, 50.8300056 ], [ 4.6859305, 50.8303161 ], [ 4.6866658, 50.8308956 ], [ 4.6867799, 50.8310387 ], [ 4.6878797, 50.8324678 ], [ 4.6891207, 50.8329322 ], [ 4.6904565, 50.8325424 ], [ 4.690772, 50.8331137 ], [ 4.691023, 50.8337003 ], [ 4.6914339, 50.8347446 ], [ 4.694276, 50.833961 ], [ 4.6942653, 50.8340702 ], [ 4.6970636, 50.8333431 ], [ 4.6972292, 50.8336316 ], [ 4.6972981, 50.8337677 ], [ 4.6974802, 50.8342423 ], [ 4.6979741, 50.8345122 ], [ 4.6987169, 50.834869 ], [ 4.6987318, 50.8348533 ], [ 4.6988453, 50.8349695 ], [ 4.699109, 50.8352245 ], [ 4.6991789, 50.8353239 ], [ 4.6991907, 50.8353923 ], [ 4.6991375, 50.8358983 ], [ 4.6991335, 50.8362866 ], [ 4.6993029, 50.8367076 ], [ 4.6999987, 50.8380366 ], [ 4.7004951, 50.8385251 ], [ 4.7005756, 50.8385693 ], [ 4.7006564, 50.838613 ], [ 4.7007562, 50.8386675 ], [ 4.7009247, 50.8388067 ], [ 4.7013752, 50.8391399 ], [ 4.7030683, 50.8405424 ], [ 4.7041868, 50.840182 ], [ 4.7052221, 50.8410635 ], [ 4.7065691, 50.840641 ], [ 4.7066463, 50.8406157 ], [ 4.7073831, 50.8403839 ], [ 4.7081096, 50.8402091 ], [ 4.7088856, 50.840923 ], [ 4.7050256, 50.8420929 ], [ 4.7053762, 50.842382 ], [ 4.7061016, 50.8428874 ], [ 4.7074367, 50.8439606 ], [ 4.7079108, 50.8444107 ], [ 4.7088209, 50.8448005 ], [ 4.7089882, 50.8449091 ], [ 4.7103025, 50.8454816 ], [ 4.7110555, 50.8456155 ], [ 4.71109, 50.8455282 ], [ 4.7103362, 50.8445456 ], [ 4.7126838, 50.8440688 ], [ 4.712691, 50.8441531 ], [ 4.7129434, 50.8450868 ], [ 4.7144165, 50.8449999 ], [ 4.7198423, 50.8446666 ], [ 4.7218108, 50.8445398 ], [ 4.7227914, 50.8444733 ], [ 4.7258176, 50.8442774 ], [ 4.7260477, 50.844268 ], [ 4.7273475, 50.8442006 ], [ 4.7284967, 50.8441776 ], [ 4.7302452, 50.8440745 ], [ 4.7317905, 50.8439489 ], [ 4.7349291, 50.8436627 ], [ 4.7374599, 50.8433676 ], [ 4.7399064, 50.8430243 ], [ 4.741507, 50.8427624 ], [ 4.7418556, 50.8427026 ], [ 4.7419966, 50.8426725 ], [ 4.7418056, 50.8429185 ], [ 4.7416742, 50.8431051 ], [ 4.7415404, 50.8432918 ], [ 4.7413743, 50.8434656 ], [ 4.7410821, 50.8437597 ], [ 4.740813, 50.8440383 ], [ 4.7406647, 50.8441849 ], [ 4.7404917, 50.8443823 ], [ 4.7402586, 50.8446271 ], [ 4.7400417, 50.8448667 ], [ 4.7399423, 50.8449899 ], [ 4.7397938, 50.8452329 ], [ 4.7394318, 50.8458563 ], [ 4.7392874, 50.8461109 ], [ 4.7391699, 50.84638 ], [ 4.7390796, 50.8466116 ], [ 4.739017, 50.8467976 ], [ 4.7389581, 50.8469933 ], [ 4.7388987, 50.8472026 ], [ 4.7387206, 50.8479065 ], [ 4.7386622, 50.848149 ], [ 4.7385979, 50.8483715 ], [ 4.7384979, 50.8485913 ], [ 4.7384419, 50.8486709 ], [ 4.7375352, 50.8499483 ], [ 4.7372815, 50.8503095 ], [ 4.7371221, 50.8505653 ], [ 4.7370343, 50.8507556 ], [ 4.7369592, 50.8509578 ], [ 4.7368759, 50.8512064 ], [ 4.73683, 50.8513681 ], [ 4.7367872, 50.8515447 ], [ 4.7367268, 50.8517494 ], [ 4.7366137, 50.85206 ], [ 4.7364921, 50.8524949 ], [ 4.7365042, 50.8526134 ], [ 4.7365347, 50.852725 ], [ 4.7365728, 50.8528847 ], [ 4.73658, 50.8529673 ], [ 4.7365701, 50.8530619 ], [ 4.7365183, 50.8532141 ], [ 4.7364104, 50.8535327 ], [ 4.736244, 50.8540929 ], [ 4.7361929, 50.8542557 ], [ 4.7361038, 50.8544895 ], [ 4.7358777, 50.8550361 ], [ 4.7357993, 50.8552219 ], [ 4.7355223, 50.8558708 ], [ 4.7354883, 50.8559369 ], [ 4.7353902, 50.8560914 ], [ 4.7353071, 50.8562109 ], [ 4.7352068, 50.8563347 ], [ 4.7350562, 50.856499 ], [ 4.7349298, 50.8566193 ], [ 4.734749, 50.8567705 ], [ 4.7344436, 50.8570161 ], [ 4.7351618, 50.857565 ], [ 4.735406, 50.8577419 ], [ 4.736299, 50.8583884 ], [ 4.736583, 50.8586268 ], [ 4.7366898, 50.8587064 ], [ 4.7376948, 50.8593487 ], [ 4.7379092, 50.8595034 ], [ 4.7380834, 50.8596386 ], [ 4.7382225, 50.8596626 ], [ 4.7383703, 50.8596764 ], [ 4.7386481, 50.8597079 ], [ 4.7390349, 50.8597625 ], [ 4.7392598, 50.8598019 ], [ 4.7393366, 50.8598194 ], [ 4.7394633, 50.8598421 ], [ 4.7395325, 50.8598724 ], [ 4.7396519, 50.8599361 ], [ 4.7398263, 50.8600631 ], [ 4.7400643, 50.8602507 ], [ 4.7402698, 50.8605022 ], [ 4.7403694, 50.860643 ], [ 4.7407612, 50.8608434 ], [ 4.7411291, 50.8610203 ], [ 4.7413693, 50.8611519 ], [ 4.7416512, 50.8613412 ], [ 4.7417945, 50.8614332 ], [ 4.7423671, 50.8617798 ], [ 4.742576, 50.8619214 ], [ 4.742653, 50.8619858 ], [ 4.7426811, 50.862007 ], [ 4.7427229, 50.8620435 ], [ 4.7430355, 50.862374 ], [ 4.7431832, 50.8625434 ], [ 4.7432666, 50.8625203 ], [ 4.7435403, 50.8629526 ], [ 4.7435425, 50.8629624 ], [ 4.7436442, 50.8631195 ], [ 4.7438811, 50.8635077 ], [ 4.7443315, 50.8633962 ], [ 4.7453079, 50.8640409 ], [ 4.7454414, 50.8641333 ], [ 4.7455748, 50.864228 ], [ 4.7457563, 50.8643643 ], [ 4.7460022, 50.8645593 ], [ 4.7461487, 50.8646819 ], [ 4.7463704, 50.864881 ], [ 4.7466557, 50.8651489 ], [ 4.7469713, 50.8654589 ], [ 4.7474938, 50.8659852 ], [ 4.7482264, 50.8674739 ], [ 4.7485034, 50.8674376 ], [ 4.7488513, 50.8674021 ], [ 4.7493557, 50.8673697 ], [ 4.7498065, 50.867351 ], [ 4.7498919, 50.8675168 ], [ 4.7499489, 50.8676529 ], [ 4.7500171, 50.867871 ], [ 4.7500615, 50.8680196 ], [ 4.7500785, 50.868064 ], [ 4.7500982, 50.868109 ], [ 4.7501177, 50.8681481 ], [ 4.7501444, 50.8681983 ], [ 4.7502921, 50.8684905 ], [ 4.7504118, 50.8687394 ], [ 4.7505103, 50.8689578 ], [ 4.7505872, 50.8690805 ], [ 4.7508208, 50.8690901 ], [ 4.7510397, 50.869255 ], [ 4.7511056, 50.8693097 ], [ 4.7511421, 50.8693432 ], [ 4.7512455, 50.8694504 ], [ 4.7515184, 50.8697377 ], [ 4.7515868, 50.8698148 ], [ 4.7518516, 50.8701564 ], [ 4.7519364, 50.8702689 ], [ 4.7519598, 50.870309 ], [ 4.7519728, 50.8703488 ], [ 4.7519827, 50.8703883 ], [ 4.7519849, 50.8704112 ], [ 4.7519931, 50.87056 ], [ 4.7519935, 50.8706555 ], [ 4.7520758, 50.8706509 ], [ 4.752864, 50.8709285 ], [ 4.7529869, 50.8710089 ], [ 4.7540957, 50.8718554 ], [ 4.7542239, 50.8718734 ], [ 4.7546436, 50.8719482 ], [ 4.7552246, 50.872056 ], [ 4.756039, 50.8720967 ], [ 4.7563151, 50.8721212 ], [ 4.7567388, 50.8721723 ], [ 4.7569328, 50.8721999 ], [ 4.7572074, 50.8722571 ], [ 4.757463, 50.8723266 ], [ 4.7580501, 50.8725442 ], [ 4.7582583, 50.8726252 ], [ 4.7585446, 50.8727255 ], [ 4.7588838, 50.8728162 ], [ 4.759053, 50.8728511 ], [ 4.7591865, 50.8728755 ], [ 4.7594369, 50.8729038 ], [ 4.7597314, 50.8729323 ], [ 4.7600405, 50.8729616 ], [ 4.7623645, 50.8756647 ], [ 4.7628225, 50.8762815 ], [ 4.76297, 50.8764686 ], [ 4.7630348, 50.8765427 ], [ 4.764349, 50.8779645 ], [ 4.7665023, 50.8804169 ], [ 4.7671325, 50.8811679 ], [ 4.7673532, 50.8814327 ], [ 4.7694013, 50.8838877 ], [ 4.7704248, 50.8851121 ], [ 4.7703478, 50.8857623 ], [ 4.7702856, 50.8861629 ], [ 4.7699966, 50.8875074 ], [ 4.7699752, 50.887683 ], [ 4.7699758, 50.8884475 ], [ 4.7699587, 50.888632 ], [ 4.7699114, 50.8888995 ], [ 4.7697535, 50.8896488 ], [ 4.7537334, 50.8883737 ], [ 4.7511214, 50.8879049 ], [ 4.7513857, 50.8900268 ], [ 4.7515879, 50.8914753 ], [ 4.7516657, 50.8925647 ], [ 4.7516647, 50.8926307 ], [ 4.7516453, 50.8927096 ], [ 4.7516141, 50.8927643 ], [ 4.7513298, 50.8931145 ], [ 4.7513009, 50.893156 ], [ 4.7512828, 50.8932061 ], [ 4.7512791, 50.8932571 ], [ 4.7512957, 50.8933356 ], [ 4.7486787, 50.893286 ], [ 4.7479943, 50.8932427 ], [ 4.7481921, 50.8935232 ], [ 4.7482295, 50.8935876 ], [ 4.7482596, 50.8936428 ], [ 4.7482803, 50.8936787 ], [ 4.7483036, 50.8937141 ], [ 4.7483259, 50.8937447 ], [ 4.7483827, 50.893815 ], [ 4.7485071, 50.8939372 ], [ 4.7485857, 50.8940047 ], [ 4.7487346, 50.8941234 ], [ 4.7488343, 50.8941996 ], [ 4.7488928, 50.8942386 ], [ 4.7492913, 50.8944944 ], [ 4.7506696, 50.8949686 ], [ 4.7508134, 50.895025 ], [ 4.7509532, 50.8950933 ], [ 4.7517261, 50.895529 ], [ 4.7522159, 50.8958388 ], [ 4.7523964, 50.896004 ], [ 4.7526702, 50.8962848 ], [ 4.7528517, 50.8964489 ], [ 4.7532157, 50.8967482 ], [ 4.7539748, 50.8972858 ], [ 4.7541048, 50.8974114 ], [ 4.7541747, 50.8974839 ], [ 4.7545818, 50.8979251 ], [ 4.7546899, 50.8980492 ], [ 4.7547348, 50.898115 ], [ 4.7547637, 50.8981727 ], [ 4.754765, 50.8981911 ], [ 4.7546342, 50.8983148 ], [ 4.7545259, 50.898477 ], [ 4.7544498, 50.8987083 ], [ 4.7544056, 50.8987963 ], [ 4.7538453, 50.8995958 ], [ 4.7536715, 50.8999146 ], [ 4.7537903, 50.9000193 ], [ 4.7538829, 50.9000976 ], [ 4.7539493, 50.9001475 ], [ 4.7540566, 50.9002206 ], [ 4.7542651, 50.9003454 ], [ 4.7545068, 50.900486 ], [ 4.7546336, 50.9005554 ], [ 4.7547975, 50.9006385 ], [ 4.7558352, 50.90111 ], [ 4.7558942, 50.90114 ], [ 4.7559562, 50.9011755 ], [ 4.7560139, 50.9012155 ], [ 4.7560558, 50.9012468 ], [ 4.7561098, 50.9012944 ], [ 4.756147, 50.9013333 ], [ 4.7564169, 50.9016348 ], [ 4.7565255, 50.9019684 ], [ 4.7565644, 50.9020507 ], [ 4.7567968, 50.9025326 ], [ 4.7568695, 50.9026675 ], [ 4.7569617, 50.9028121 ], [ 4.7570791, 50.9029576 ], [ 4.7574164, 50.9033415 ], [ 4.7575082, 50.9034792 ], [ 4.7577124, 50.9037883 ], [ 4.7577661, 50.9038625 ], [ 4.7578475, 50.9039617 ], [ 4.7579501, 50.9040718 ], [ 4.7580628, 50.9041761 ], [ 4.7581888, 50.9042752 ], [ 4.7592443, 50.905045 ], [ 4.7593241, 50.9051186 ], [ 4.7594059, 50.905207 ], [ 4.7594947, 50.9053169 ], [ 4.7595739, 50.9054461 ], [ 4.7596242, 50.905547 ], [ 4.7596641, 50.9056442 ], [ 4.7597147, 50.905788 ], [ 4.7597874, 50.9060461 ], [ 4.7598159, 50.906214 ], [ 4.7598857, 50.9063825 ], [ 4.7603864, 50.9070768 ], [ 4.7605022, 50.9072883 ], [ 4.7605543, 50.9073968 ], [ 4.7605882, 50.907491 ], [ 4.7606187, 50.9076135 ], [ 4.7606106, 50.9078142 ], [ 4.758945, 50.9079483 ], [ 4.7575129, 50.9080637 ], [ 4.756409, 50.9081525 ], [ 4.7535185, 50.9083855 ], [ 4.7500241, 50.908667 ], [ 4.7489629, 50.9087526 ], [ 4.7479669, 50.908833 ], [ 4.7455666, 50.9084919 ], [ 4.7448569, 50.9083911 ], [ 4.742459, 50.9080505 ], [ 4.738634, 50.9075582 ], [ 4.7356478, 50.9071726 ], [ 4.7289456, 50.9063062 ], [ 4.7277667, 50.9065745 ], [ 4.7266571, 50.906827 ], [ 4.725964, 50.9069847 ], [ 4.725786, 50.9070253 ], [ 4.7254232, 50.9071077 ], [ 4.7249192, 50.9072223 ], [ 4.7247691, 50.9072566 ], [ 4.7241574, 50.9074017 ], [ 4.7238304, 50.9074791 ], [ 4.7235226, 50.9075519 ], [ 4.7230105, 50.9076735 ], [ 4.7224301, 50.9078109 ], [ 4.7222683, 50.9078492 ], [ 4.722135, 50.9078807 ], [ 4.7221257, 50.9078922 ], [ 4.7220934, 50.9079381 ], [ 4.7220727, 50.9079773 ], [ 4.7220629, 50.9080031 ], [ 4.7219769, 50.9082775 ], [ 4.7219574, 50.9083227 ], [ 4.7219327, 50.9083577 ], [ 4.7219029, 50.9083891 ], [ 4.721875, 50.9084149 ], [ 4.7218374, 50.9084425 ], [ 4.721801, 50.9084622 ], [ 4.721724, 50.9084954 ], [ 4.7216744, 50.9085124 ], [ 4.7216283, 50.9085221 ], [ 4.7215035, 50.908546 ], [ 4.7204117, 50.9086588 ], [ 4.7199375, 50.908422 ], [ 4.7194611, 50.9080714 ], [ 4.7193274, 50.9079368 ], [ 4.7192485, 50.9078545 ], [ 4.7191714, 50.9077698 ], [ 4.7189563, 50.907532 ], [ 4.7187698, 50.9073933 ], [ 4.7187035, 50.9073609 ], [ 4.7184327, 50.9072246 ], [ 4.7183441, 50.9071997 ], [ 4.7182422, 50.9071882 ], [ 4.7179753, 50.9071812 ], [ 4.7172161, 50.9079273 ], [ 4.7173378, 50.9081612 ], [ 4.7175435, 50.9085259 ], [ 4.7170451, 50.9087057 ], [ 4.7157225, 50.9091654 ], [ 4.7158279, 50.909347 ], [ 4.7160577, 50.9098814 ], [ 4.7160975, 50.9099846 ], [ 4.7161645, 50.9102465 ], [ 4.7161633, 50.9103201 ], [ 4.7161486, 50.9103854 ], [ 4.7161137, 50.9104784 ], [ 4.7160897, 50.9106477 ], [ 4.7160872, 50.9107386 ], [ 4.716113, 50.910805 ], [ 4.7161412, 50.9109329 ], [ 4.7161318, 50.9110623 ], [ 4.7160316, 50.9113871 ], [ 4.7160098, 50.9115054 ], [ 4.7159915, 50.911678 ], [ 4.7159836, 50.9119014 ], [ 4.7160161, 50.9120561 ], [ 4.7160413, 50.9121269 ], [ 4.7161151, 50.9122887 ], [ 4.7161499, 50.9124188 ], [ 4.7162109, 50.9128053 ], [ 4.7162313, 50.9130392 ], [ 4.7162293, 50.9131106 ], [ 4.7162186, 50.9132277 ], [ 4.7162218, 50.9132828 ], [ 4.7162158, 50.913314 ], [ 4.7162025, 50.913349 ], [ 4.7161829, 50.9133919 ], [ 4.7161442, 50.9134643 ], [ 4.7160012, 50.9137037 ], [ 4.715876, 50.9139266 ], [ 4.7157863, 50.9140824 ], [ 4.7156747, 50.9142936 ], [ 4.7159128, 50.9147187 ], [ 4.7161023, 50.9146751 ], [ 4.7162437, 50.9146426 ], [ 4.7164049, 50.9146058 ], [ 4.7164578, 50.9146001 ], [ 4.7164993, 50.9145956 ], [ 4.7165491, 50.9147038 ], [ 4.71672, 50.9150008 ], [ 4.7167729, 50.9150844 ], [ 4.7168232, 50.9151524 ], [ 4.7169162, 50.9152612 ], [ 4.7169935, 50.9153366 ], [ 4.7171065, 50.9154313 ], [ 4.7171616, 50.9154698 ], [ 4.717223, 50.9155055 ], [ 4.7173993, 50.9155971 ], [ 4.7181659, 50.9159751 ], [ 4.7185596, 50.9161759 ], [ 4.7188395, 50.9163361 ], [ 4.7201585, 50.9171727 ], [ 4.7202523, 50.9172248 ], [ 4.7204076, 50.9172959 ], [ 4.7205239, 50.9173409 ], [ 4.7206532, 50.9173812 ], [ 4.7208019, 50.9174208 ], [ 4.7209406, 50.91745 ], [ 4.7220846, 50.9176328 ], [ 4.7234213, 50.9178518 ], [ 4.7239402, 50.9179514 ], [ 4.7242267, 50.9180248 ], [ 4.7257553, 50.918476 ], [ 4.7258993, 50.9185147 ], [ 4.7261721, 50.9185807 ], [ 4.7273001, 50.9188865 ], [ 4.7277568, 50.9189936 ], [ 4.72807, 50.9190842 ], [ 4.7298703, 50.9195551 ], [ 4.729195, 50.9201343 ], [ 4.7289566, 50.9207345 ], [ 4.7289028, 50.920917 ], [ 4.7285552, 50.921714 ], [ 4.7283728, 50.922132 ], [ 4.7283632, 50.9221541 ], [ 4.7283197, 50.9222149 ], [ 4.7281865, 50.9224391 ], [ 4.7281395, 50.9226432 ], [ 4.728218, 50.9226527 ], [ 4.7282672, 50.9226619 ], [ 4.728455, 50.9226728 ], [ 4.7285764, 50.9226749 ], [ 4.7287097, 50.9226717 ], [ 4.7289184, 50.9226582 ], [ 4.729103, 50.9226432 ], [ 4.729429, 50.9226581 ], [ 4.7296332, 50.9226656 ], [ 4.7297868, 50.9226644 ], [ 4.7298957, 50.9226578 ], [ 4.7300168, 50.92267 ], [ 4.730207, 50.9226695 ], [ 4.7304042, 50.922661 ], [ 4.7306347, 50.9226609 ], [ 4.7307535, 50.9226655 ], [ 4.7308659, 50.9226865 ], [ 4.7313473, 50.9227929 ], [ 4.7315687, 50.9222932 ], [ 4.7334703, 50.9223658 ], [ 4.7339447, 50.922408 ], [ 4.7341241, 50.9224357 ], [ 4.7342906, 50.9224773 ], [ 4.7344363, 50.9225069 ], [ 4.7346298, 50.9225355 ], [ 4.7347634, 50.9225636 ], [ 4.7348724, 50.9226006 ], [ 4.7349797, 50.9226433 ], [ 4.7350544, 50.9226652 ], [ 4.7351879, 50.9226989 ], [ 4.7353284, 50.9227271 ], [ 4.7354662, 50.9227561 ], [ 4.7356164, 50.9227842 ], [ 4.7357357, 50.922817 ], [ 4.736149, 50.9229065 ], [ 4.7367761, 50.9231165 ], [ 4.7372639, 50.9233048 ], [ 4.7373043, 50.9233313 ], [ 4.7373779, 50.923374 ], [ 4.7374621, 50.9234178 ], [ 4.737602, 50.9234747 ], [ 4.7377301, 50.9235255 ], [ 4.7378455, 50.923557 ], [ 4.7379377, 50.9235899 ], [ 4.7380373, 50.9236345 ], [ 4.7381683, 50.923686 ], [ 4.7383004, 50.9237334 ], [ 4.7384455, 50.9237879 ], [ 4.7385867, 50.9238325 ], [ 4.7386218, 50.9238421 ], [ 4.7388179, 50.9238855 ], [ 4.7388903, 50.9238993 ], [ 4.7389721, 50.9239175 ], [ 4.7391519, 50.9239609 ], [ 4.7393307, 50.9239977 ], [ 4.7394954, 50.9240273 ], [ 4.7395423, 50.9240377 ], [ 4.7396553, 50.9240664 ], [ 4.7397, 50.9240763 ], [ 4.7397517, 50.9240857 ], [ 4.7398169, 50.9240931 ], [ 4.7398474, 50.9240981 ], [ 4.7399285, 50.9241155 ], [ 4.7400346, 50.9241357 ], [ 4.7401721, 50.9241601 ], [ 4.7403622, 50.924199 ], [ 4.7404854, 50.9242128 ], [ 4.7405504, 50.9242255 ], [ 4.7407398, 50.9242798 ], [ 4.7407934, 50.924293 ], [ 4.7408747, 50.9243175 ], [ 4.7409276, 50.9243311 ], [ 4.7410922, 50.9243772 ], [ 4.7412043, 50.9244118 ], [ 4.7412951, 50.9244418 ], [ 4.7414053, 50.9244734 ], [ 4.7417476, 50.924565 ], [ 4.7419327, 50.9246086 ], [ 4.7420053, 50.9246243 ], [ 4.7420223, 50.9246292 ], [ 4.7420506, 50.9246434 ], [ 4.742105, 50.9246753 ], [ 4.7421558, 50.9247016 ], [ 4.7422324, 50.924745 ], [ 4.7423284, 50.9248046 ], [ 4.7424355, 50.924878 ], [ 4.7425622, 50.9249737 ], [ 4.7427259, 50.9251007 ], [ 4.7427838, 50.9251411 ], [ 4.742835, 50.9251699 ], [ 4.7428707, 50.9251867 ], [ 4.7429555, 50.9252203 ], [ 4.7432863, 50.9253563 ], [ 4.7433487, 50.9253134 ], [ 4.7436365, 50.9253038 ], [ 4.7444985, 50.9253417 ], [ 4.7446445, 50.9253432 ], [ 4.7449069, 50.9253869 ], [ 4.7455392, 50.9255894 ], [ 4.745861, 50.9256748 ], [ 4.7463315, 50.92584 ], [ 4.7466694, 50.9260198 ], [ 4.746841, 50.9261168 ], [ 4.7469708, 50.9262111 ], [ 4.7472062, 50.9264224 ], [ 4.7473852, 50.9265534 ], [ 4.7471808, 50.92675 ], [ 4.7470517, 50.9268909 ], [ 4.746704, 50.9272619 ], [ 4.7465543, 50.9273981 ], [ 4.7464298, 50.9274788 ], [ 4.74623, 50.9276404 ], [ 4.7461168, 50.9277523 ], [ 4.7465959, 50.92791 ], [ 4.7475271, 50.9281984 ], [ 4.7474265, 50.9284063 ], [ 4.7472806, 50.928646 ], [ 4.7468986, 50.9291542 ], [ 4.7466969, 50.9294775 ], [ 4.746188, 50.9302266 ], [ 4.7460122, 50.93058 ], [ 4.7457766, 50.9309757 ], [ 4.7457054, 50.9310901 ], [ 4.7453215, 50.9316526 ], [ 4.7450794, 50.9320676 ], [ 4.7446767, 50.9328395 ], [ 4.7453149, 50.9330196 ], [ 4.745589, 50.933074 ], [ 4.7455057, 50.933283 ], [ 4.7453084, 50.9338475 ], [ 4.7451862, 50.9343432 ], [ 4.7456088, 50.9346033 ], [ 4.7457479, 50.9349859 ], [ 4.7456498, 50.9350076 ], [ 4.745511, 50.9350215 ], [ 4.7453245, 50.9350135 ], [ 4.7452713, 50.9350227 ], [ 4.7452059, 50.9350723 ], [ 4.7451384, 50.9351093 ], [ 4.745051, 50.9351246 ], [ 4.7447386, 50.9351315 ], [ 4.7446561, 50.9351649 ], [ 4.7446314, 50.9352022 ], [ 4.7446204, 50.9352704 ], [ 4.7446841, 50.9353466 ], [ 4.7447364, 50.9354153 ], [ 4.7447186, 50.9354728 ], [ 4.7446308, 50.9355122 ], [ 4.7444474, 50.9354681 ], [ 4.7443076, 50.9355162 ], [ 4.7441428, 50.9355583 ], [ 4.7438878, 50.9355569 ], [ 4.7437054, 50.9356786 ], [ 4.743609, 50.9357552 ], [ 4.7435148, 50.9358887 ], [ 4.7434794, 50.9359875 ], [ 4.7434802, 50.936084 ], [ 4.7426112, 50.935447 ], [ 4.7426174, 50.9354434 ], [ 4.7422937, 50.9352069 ], [ 4.7419728, 50.9356858 ], [ 4.7411468, 50.935431 ], [ 4.7402332, 50.9364606 ], [ 4.7396139, 50.9362269 ], [ 4.7379417, 50.9355356 ], [ 4.7372694, 50.9354761 ], [ 4.736981, 50.9360296 ], [ 4.7351175, 50.9358739 ], [ 4.7349969, 50.9360223 ], [ 4.7348839, 50.9361335 ], [ 4.7348363, 50.9361991 ], [ 4.7347708, 50.9363306 ], [ 4.7347419, 50.9363935 ], [ 4.7347138, 50.9365234 ], [ 4.7346934, 50.9365771 ], [ 4.7345898, 50.9367271 ], [ 4.73457, 50.9367707 ], [ 4.7345253, 50.9369539 ], [ 4.7344858, 50.9370298 ], [ 4.7343566, 50.9371585 ], [ 4.7343214, 50.9372191 ], [ 4.7342792, 50.9373145 ], [ 4.7341706, 50.9376161 ], [ 4.7341252, 50.9378242 ], [ 4.7340895, 50.9379562 ], [ 4.7339712, 50.9383472 ], [ 4.7338378, 50.9386129 ], [ 4.7337563, 50.9390535 ], [ 4.7336831, 50.9393041 ], [ 4.7336698, 50.9393767 ], [ 4.7336438, 50.9393932 ], [ 4.7336176, 50.9394018 ], [ 4.7333469, 50.9394312 ], [ 4.7331543, 50.9394545 ], [ 4.7331191, 50.9394639 ], [ 4.7319372, 50.9389308 ], [ 4.7318179, 50.93882 ], [ 4.7312542, 50.9389994 ], [ 4.7308181, 50.9383614 ], [ 4.7302151, 50.9379178 ], [ 4.7299944, 50.9380554 ], [ 4.7299043, 50.9379923 ], [ 4.7298532, 50.9379493 ], [ 4.7298299, 50.9379287 ], [ 4.7297981, 50.9379007 ], [ 4.7297304, 50.9378357 ], [ 4.7294731, 50.9375915 ], [ 4.7292675, 50.9374994 ], [ 4.7292311, 50.9374831 ], [ 4.7290698, 50.9374108 ], [ 4.7287533, 50.9372693 ], [ 4.7286722, 50.9372329 ], [ 4.7283762, 50.9370367 ], [ 4.7282752, 50.936929 ], [ 4.728184, 50.9368309 ], [ 4.7278904, 50.9366279 ], [ 4.72773, 50.936557 ], [ 4.7275312, 50.9365087 ], [ 4.7272064, 50.9364304 ], [ 4.7268525, 50.9363441 ], [ 4.7265446, 50.9362697 ], [ 4.7264917, 50.9362435 ], [ 4.7262616, 50.9361295 ], [ 4.7263047, 50.9360953 ], [ 4.7265333, 50.935904 ], [ 4.7265861, 50.9358617 ], [ 4.7266142, 50.9358412 ], [ 4.7266308, 50.9358304 ], [ 4.7260583, 50.9353903 ], [ 4.7258985, 50.9354711 ], [ 4.7258023, 50.9352972 ], [ 4.7257389, 50.9352027 ], [ 4.7256741, 50.9351163 ], [ 4.725492, 50.9349118 ], [ 4.7252921, 50.9347157 ], [ 4.7250439, 50.9344739 ], [ 4.7248069, 50.9342409 ], [ 4.724515, 50.9340576 ], [ 4.7242171, 50.9338817 ], [ 4.7239174, 50.9337099 ], [ 4.7236718, 50.9335691 ], [ 4.7235673, 50.933487 ], [ 4.7234627, 50.933404 ], [ 4.72334, 50.9333067 ], [ 4.7232549, 50.9332394 ], [ 4.7232012, 50.9331972 ], [ 4.723013, 50.9330484 ], [ 4.7229173, 50.9329727 ], [ 4.7228063, 50.9328854 ], [ 4.7226672, 50.9327753 ], [ 4.7223052, 50.9325343 ], [ 4.722123, 50.9324484 ], [ 4.7220127, 50.9324108 ], [ 4.7212451, 50.9322258 ], [ 4.7207553, 50.9321074 ], [ 4.720745, 50.9321181 ], [ 4.7203818, 50.9322553 ], [ 4.7192047, 50.9326995 ], [ 4.7186472, 50.9320223 ], [ 4.7183975, 50.9318285 ], [ 4.7183462, 50.9317961 ], [ 4.7176103, 50.9314804 ], [ 4.7172981, 50.9312898 ], [ 4.7171614, 50.9312465 ], [ 4.7170774, 50.9312295 ], [ 4.7170209, 50.9312203 ], [ 4.7169519, 50.9312167 ], [ 4.716885, 50.9312185 ], [ 4.7167935, 50.9312247 ], [ 4.7167335, 50.931227 ], [ 4.7166779, 50.9312255 ], [ 4.7166354, 50.9312223 ], [ 4.7165948, 50.9312169 ], [ 4.7165514, 50.9312066 ], [ 4.7165131, 50.9311929 ], [ 4.7164805, 50.9311756 ], [ 4.7164399, 50.9311481 ], [ 4.7163969, 50.9311154 ], [ 4.7163319, 50.9310552 ], [ 4.7159414, 50.9307085 ], [ 4.7158441, 50.9306309 ], [ 4.7157878, 50.9305903 ], [ 4.7157295, 50.9305568 ], [ 4.7156823, 50.9305322 ], [ 4.7156103, 50.9304998 ], [ 4.7154795, 50.9304436 ], [ 4.715064, 50.9302748 ], [ 4.7153805, 50.9299053 ], [ 4.7151519, 50.9297878 ], [ 4.7150952, 50.9297647 ], [ 4.7150595, 50.9297515 ], [ 4.7150225, 50.9297404 ], [ 4.7149637, 50.9297265 ], [ 4.7149263, 50.9297198 ], [ 4.7148868, 50.9297143 ], [ 4.7148237, 50.9297085 ], [ 4.7146916, 50.9296993 ], [ 4.7146309, 50.9296865 ], [ 4.7145518, 50.9296522 ], [ 4.7145259, 50.9296321 ], [ 4.7144989, 50.9296071 ], [ 4.7144723, 50.9295804 ], [ 4.714448, 50.9295545 ], [ 4.7144188, 50.9295209 ], [ 4.7143954, 50.9294916 ], [ 4.7143721, 50.9294602 ], [ 4.7142428, 50.9292418 ], [ 4.7142207, 50.9292027 ], [ 4.7142014, 50.9291741 ], [ 4.7141668, 50.9291292 ], [ 4.7141523, 50.9291112 ], [ 4.7141161, 50.929072 ], [ 4.7140958, 50.9290529 ], [ 4.7140769, 50.9290359 ], [ 4.7140578, 50.9290204 ], [ 4.7140383, 50.9290053 ], [ 4.7140152, 50.9289886 ], [ 4.7139947, 50.9289751 ], [ 4.7139427, 50.9289423 ], [ 4.7138906, 50.9289135 ], [ 4.7138648, 50.9289 ], [ 4.7138055, 50.9288721 ], [ 4.7137725, 50.9288577 ], [ 4.7137057, 50.9288317 ], [ 4.7136304, 50.9288034 ], [ 4.7135787, 50.9287874 ], [ 4.7135267, 50.9287734 ], [ 4.7134707, 50.9287612 ], [ 4.7134172, 50.928752 ], [ 4.7133572, 50.9287439 ], [ 4.713298, 50.9287391 ], [ 4.7132555, 50.9287374 ], [ 4.7131814, 50.9287361 ], [ 4.7131286, 50.9287381 ], [ 4.7130719, 50.9287421 ], [ 4.7127469, 50.9287781 ], [ 4.7126636, 50.9287822 ], [ 4.7126426, 50.9287817 ], [ 4.7125966, 50.928778 ], [ 4.7125584, 50.9287738 ], [ 4.712516, 50.9287671 ], [ 4.7124789, 50.9287601 ], [ 4.7124298, 50.9287482 ], [ 4.7119183, 50.9286152 ], [ 4.7116081, 50.9285328 ], [ 4.711516, 50.9285062 ], [ 4.7115112, 50.9284174 ], [ 4.7109652, 50.9285231 ], [ 4.7110685, 50.9286019 ], [ 4.7111122, 50.928676 ], [ 4.7111645, 50.9287773 ], [ 4.7111746, 50.9288377 ], [ 4.7111623, 50.9289184 ], [ 4.7109775, 50.9292726 ], [ 4.7109662, 50.9293296 ], [ 4.7109576, 50.9294243 ], [ 4.7109662, 50.9295622 ], [ 4.7109958, 50.9295993 ], [ 4.7118057, 50.9302347 ], [ 4.7120873, 50.9306593 ], [ 4.7124257, 50.9312025 ], [ 4.7125073, 50.9313401 ], [ 4.71262, 50.9315083 ], [ 4.7127329, 50.9316347 ], [ 4.7129437, 50.9318449 ], [ 4.713274, 50.932104 ], [ 4.7134032, 50.9321989 ], [ 4.7134873, 50.9323032 ], [ 4.7135124, 50.9323714 ], [ 4.7135185, 50.9324417 ], [ 4.7134735, 50.9325052 ], [ 4.7133851, 50.9325392 ], [ 4.7130192, 50.9325652 ], [ 4.7127445, 50.9325901 ], [ 4.7124349, 50.9326243 ], [ 4.712217, 50.9326527 ], [ 4.7120348, 50.9326843 ], [ 4.7118751, 50.9327367 ], [ 4.7117928, 50.9327936 ], [ 4.7117776, 50.9328286 ], [ 4.7117635, 50.932915 ], [ 4.7117466, 50.9330536 ], [ 4.7116465, 50.9332985 ], [ 4.7115855, 50.9335179 ], [ 4.711559, 50.9336519 ], [ 4.7115394, 50.9337891 ], [ 4.7115333, 50.9339279 ], [ 4.7115326, 50.9341154 ], [ 4.7115449, 50.9343519 ], [ 4.7115858, 50.9344997 ], [ 4.7116906, 50.9347078 ], [ 4.7117723, 50.9348325 ], [ 4.7118756, 50.9349163 ], [ 4.7120334, 50.9350302 ], [ 4.7121838, 50.9351149 ], [ 4.7123635, 50.9352459 ], [ 4.7125225, 50.9354215 ], [ 4.7125552, 50.9355111 ], [ 4.71254, 50.9355385 ], [ 4.7125174, 50.9355671 ], [ 4.7124683, 50.9355972 ], [ 4.712223, 50.9356671 ], [ 4.7120719, 50.9357345 ], [ 4.711974, 50.935817 ], [ 4.7118988, 50.9359541 ], [ 4.7118756, 50.9360563 ], [ 4.7118437, 50.9363781 ], [ 4.711825, 50.9367841 ], [ 4.7117702, 50.9369269 ], [ 4.7116677, 50.9370966 ], [ 4.711539, 50.9372805 ], [ 4.7112837, 50.9375513 ], [ 4.7107843, 50.9381019 ], [ 4.7107067, 50.938299 ], [ 4.7106863, 50.9384263 ], [ 4.7107094, 50.9389193 ], [ 4.7106949, 50.9390406 ], [ 4.7105782, 50.9392095 ], [ 4.7105255, 50.9392659 ], [ 4.7104496, 50.9393138 ], [ 4.7100311, 50.9394229 ], [ 4.7097161, 50.9395207 ], [ 4.7094915, 50.9396061 ], [ 4.70931, 50.9397006 ], [ 4.7090253, 50.9398638 ], [ 4.7088336, 50.9400021 ], [ 4.7086397, 50.9401632 ], [ 4.7085207, 50.9402712 ], [ 4.7084317, 50.9403392 ], [ 4.7082324, 50.9404629 ], [ 4.7080667, 50.9405095 ], [ 4.7077895, 50.9405651 ], [ 4.7073192, 50.940625 ], [ 4.707049, 50.9407154 ], [ 4.7069775, 50.9407699 ], [ 4.7069281, 50.9408379 ], [ 4.7069083, 50.9409374 ], [ 4.7070811, 50.9410969 ], [ 4.7074354, 50.9413255 ], [ 4.7075198, 50.9413837 ], [ 4.7075623, 50.9414348 ], [ 4.7075843, 50.9414894 ], [ 4.7075527, 50.941552 ], [ 4.7074028, 50.9416156 ], [ 4.7071509, 50.9415896 ], [ 4.706775, 50.9414962 ], [ 4.7066601, 50.9414975 ], [ 4.7065245, 50.9415188 ], [ 4.7064318, 50.9415574 ], [ 4.7063545, 50.9416063 ], [ 4.7062908, 50.9416732 ], [ 4.7062114, 50.9417486 ], [ 4.7060837, 50.941847 ], [ 4.7059603, 50.9419282 ], [ 4.7057919, 50.9420266 ], [ 4.705402, 50.9422838 ], [ 4.7053029, 50.9423761 ], [ 4.7051367, 50.9425483 ], [ 4.7050643, 50.9426786 ], [ 4.7050222, 50.9427787 ], [ 4.7050132, 50.9428678 ], [ 4.7049629, 50.9432318 ], [ 4.7049091, 50.9433433 ], [ 4.7048865, 50.9433791 ], [ 4.7048311, 50.9434464 ], [ 4.7047611, 50.9435186 ], [ 4.7047193, 50.9435473 ], [ 4.704663, 50.9435832 ], [ 4.704574, 50.9436235 ], [ 4.7045248, 50.9436361 ], [ 4.7044657, 50.9436424 ], [ 4.7042823, 50.9436384 ], [ 4.7040544, 50.9436472 ], [ 4.7038744, 50.9436696 ], [ 4.7037363, 50.9436917 ], [ 4.7034817, 50.9434538 ], [ 4.7033849, 50.9433731 ], [ 4.7033313, 50.9433217 ], [ 4.703274, 50.9432531 ], [ 4.7032171, 50.9431707 ], [ 4.7031617, 50.943096 ], [ 4.7030654, 50.9429614 ], [ 4.7029725, 50.9427902 ], [ 4.702942, 50.9427429 ], [ 4.7028825, 50.9426618 ], [ 4.7026887, 50.9425528 ], [ 4.7025814, 50.9425229 ], [ 4.7024451, 50.9424179 ], [ 4.7018679, 50.9421209 ], [ 4.7013728, 50.9421539 ], [ 4.7011949, 50.9421222 ], [ 4.701127, 50.9420891 ], [ 4.7009932, 50.9420394 ], [ 4.7009914, 50.9420153 ], [ 4.6996907, 50.9415691 ], [ 4.6996195, 50.9415911 ], [ 4.6995222, 50.9417087 ], [ 4.698561, 50.9414786 ], [ 4.6976581, 50.9413808 ], [ 4.6966909, 50.9411513 ], [ 4.695425, 50.9411354 ], [ 4.6934072, 50.9409517 ], [ 4.6933036, 50.9409434 ], [ 4.6932875, 50.940987 ], [ 4.6932708, 50.94104 ], [ 4.6932569, 50.9410992 ], [ 4.6931651, 50.9417022 ], [ 4.6920212, 50.9424961 ], [ 4.6912975, 50.9430123 ], [ 4.6909596, 50.9432576 ], [ 4.6907128, 50.9434228 ], [ 4.6904081, 50.9435969 ], [ 4.6895845, 50.9440139 ], [ 4.6894654, 50.9440737 ], [ 4.6886958, 50.9435819 ], [ 4.6883228, 50.9433616 ], [ 4.6879691, 50.9431647 ], [ 4.6876158, 50.9430125 ], [ 4.6873568, 50.9429134 ], [ 4.6870838, 50.9428097 ], [ 4.6866021, 50.9426383 ], [ 4.6862379, 50.9425177 ], [ 4.6853378, 50.9422683 ], [ 4.6847632, 50.9421202 ], [ 4.6844207, 50.9420498 ], [ 4.6837843, 50.941906 ], [ 4.6833734, 50.9418157 ], [ 4.6829908, 50.941734 ], [ 4.6827011, 50.9416666 ], [ 4.6823883, 50.9416042 ], [ 4.6825606, 50.9413255 ], [ 4.6820002, 50.9411385 ], [ 4.6814175, 50.9409379 ], [ 4.680803, 50.9407132 ], [ 4.6803395, 50.9403905 ], [ 4.6802204, 50.9402902 ], [ 4.680193, 50.9402657 ], [ 4.6801292, 50.9402036 ], [ 4.6800972, 50.9401883 ], [ 4.6800727, 50.9401916 ], [ 4.680054, 50.9402253 ], [ 4.6800343, 50.9402503 ], [ 4.6799988, 50.940275 ], [ 4.6799697, 50.9402869 ], [ 4.679914, 50.9402971 ], [ 4.6798888, 50.9402989 ], [ 4.6798469, 50.9403115 ], [ 4.679749, 50.9403176 ], [ 4.6796682, 50.9403235 ], [ 4.6794526, 50.940335 ], [ 4.6794083, 50.9403363 ], [ 4.6793349, 50.9403367 ], [ 4.6792179, 50.940336 ], [ 4.6791686, 50.9403378 ], [ 4.6791383, 50.9403405 ], [ 4.6790714, 50.9403514 ], [ 4.678848, 50.9403496 ], [ 4.6781472, 50.9400686 ], [ 4.6770961, 50.9396758 ], [ 4.6764058, 50.9394477 ], [ 4.6764316, 50.9393146 ], [ 4.6764485, 50.9392573 ], [ 4.6764747, 50.9391374 ], [ 4.6763736, 50.9390513 ], [ 4.6760063, 50.9384841 ], [ 4.675671, 50.938333 ], [ 4.6755293, 50.9382484 ], [ 4.6753488, 50.9381033 ], [ 4.6753012, 50.9380602 ], [ 4.6752462, 50.9380004 ], [ 4.6749152, 50.9376667 ], [ 4.6748282, 50.9376039 ], [ 4.6747677, 50.9375547 ], [ 4.6746819, 50.9375025 ], [ 4.6746282, 50.9374719 ], [ 4.6744774, 50.9374166 ], [ 4.6738341, 50.9372078 ], [ 4.6737294, 50.9371858 ], [ 4.6731142, 50.9371314 ], [ 4.672784, 50.9370958 ], [ 4.6724145, 50.9370355 ], [ 4.6724255, 50.9369368 ], [ 4.672475, 50.9366193 ], [ 4.6715242, 50.9361282 ], [ 4.671184, 50.9359601 ], [ 4.6740802, 50.9340679 ], [ 4.6743735, 50.9338669 ], [ 4.6769058, 50.9322009 ], [ 4.6783411, 50.9312368 ], [ 4.6803835, 50.9298883 ], [ 4.6831617, 50.9280186 ], [ 4.6845324, 50.9270991 ], [ 4.6852198, 50.9266539 ], [ 4.685951, 50.9263737 ], [ 4.6901224, 50.9247919 ], [ 4.6920284, 50.9240602 ], [ 4.6930539, 50.9236648 ], [ 4.6964777, 50.9223797 ], [ 4.7004185, 50.9208664 ], [ 4.7026004, 50.9200226 ], [ 4.7013028, 50.9199087 ], [ 4.6974059, 50.9200231 ], [ 4.6955316, 50.9195996 ], [ 4.6950252, 50.919481 ], [ 4.6937935, 50.9188212 ], [ 4.6959528, 50.9165428 ], [ 4.6957353, 50.9164675 ], [ 4.6955559, 50.9164073 ], [ 4.6953251, 50.916342 ], [ 4.6947808, 50.9162185 ], [ 4.6945059, 50.91614 ], [ 4.6942832, 50.9160576 ], [ 4.6940834, 50.9159813 ], [ 4.6950315, 50.9142694 ], [ 4.694331, 50.9141012 ], [ 4.6944693, 50.9137462 ], [ 4.6945039, 50.9136405 ], [ 4.6946416, 50.9129059 ], [ 4.6947499, 50.9121581 ], [ 4.695217, 50.9107737 ], [ 4.6948658, 50.9107032 ], [ 4.6932281, 50.9103788 ], [ 4.6931366, 50.9102296 ], [ 4.6928828, 50.9098726 ], [ 4.692877, 50.9098644 ], [ 4.6925503, 50.9094993 ], [ 4.6924931, 50.9089404 ], [ 4.6922404, 50.9069914 ], [ 4.6920526, 50.90582 ], [ 4.6919763, 50.9053423 ], [ 4.691975, 50.9052628 ], [ 4.6919652, 50.9049583 ], [ 4.6917915, 50.9044897 ], [ 4.6918287, 50.904483 ], [ 4.6915857, 50.9037093 ], [ 4.6917569, 50.9032293 ], [ 4.691982, 50.9025745 ], [ 4.6927947, 50.9004146 ], [ 4.6928778, 50.9001557 ], [ 4.6931695, 50.8993644 ], [ 4.6929441, 50.8992469 ], [ 4.6927881, 50.8991706 ], [ 4.6925693, 50.8990763 ], [ 4.692065, 50.8988333 ], [ 4.6919831, 50.8987923 ], [ 4.6918394, 50.8987056 ], [ 4.6917859, 50.8986642 ], [ 4.6917007, 50.8985897 ], [ 4.6915632, 50.8984488 ], [ 4.6914767, 50.8983687 ], [ 4.6914429, 50.8983317 ], [ 4.6912194, 50.8980612 ], [ 4.6911409, 50.8979791 ], [ 4.6910835, 50.8979325 ], [ 4.6910249, 50.8978896 ], [ 4.6908496, 50.8977816 ], [ 4.6906219, 50.8976697 ], [ 4.6904814, 50.8976067 ], [ 4.6893219, 50.897158 ], [ 4.6890326, 50.8970436 ], [ 4.6886666, 50.8968925 ], [ 4.6887584, 50.895903 ], [ 4.6888754, 50.8950739 ], [ 4.6886443, 50.8949828 ], [ 4.6882092, 50.8949351 ], [ 4.688024, 50.8948377 ], [ 4.6879247, 50.8948168 ], [ 4.6883846, 50.8945201 ], [ 4.687701, 50.8942553 ], [ 4.6847884, 50.8931288 ], [ 4.6823645, 50.8921807 ], [ 4.6816634, 50.8919188 ], [ 4.6800169, 50.89122 ], [ 4.6797056, 50.891079 ], [ 4.6794191, 50.8909299 ], [ 4.6788264, 50.8905924 ], [ 4.6785909, 50.8904676 ], [ 4.6781568, 50.8902209 ], [ 4.6778867, 50.8900563 ], [ 4.6777558, 50.8899718 ], [ 4.6775899, 50.8898577 ], [ 4.6772143, 50.8895691 ], [ 4.6769323, 50.8893426 ], [ 4.6767704, 50.8892058 ], [ 4.6765575, 50.8890305 ], [ 4.6761463, 50.8886639 ], [ 4.6759599, 50.8884914 ], [ 4.6757565, 50.8882985 ], [ 4.6756181, 50.8881565 ], [ 4.6753639, 50.8878771 ], [ 4.6751899, 50.8876878 ], [ 4.6749601, 50.8874181 ], [ 4.6745193, 50.886892 ], [ 4.6743658, 50.8867001 ], [ 4.674228, 50.8865326 ], [ 4.6738874, 50.8861099 ], [ 4.6734125, 50.8855258 ], [ 4.6731627, 50.8855813 ], [ 4.6726483, 50.8850867 ], [ 4.672468, 50.8847907 ], [ 4.6721659, 50.8845277 ], [ 4.6720685, 50.8843899 ], [ 4.6719222, 50.8841952 ], [ 4.6717818, 50.8839696 ], [ 4.6715948, 50.8837025 ], [ 4.6714113, 50.8835271 ], [ 4.6710939, 50.8832168 ], [ 4.670886, 50.8830185 ], [ 4.6708446, 50.8829315 ], [ 4.6709188, 50.8825321 ], [ 4.6709963, 50.8822947 ], [ 4.6711042, 50.8819025 ], [ 4.6710945, 50.8816211 ], [ 4.67096, 50.8815503 ], [ 4.6708189, 50.8814566 ], [ 4.6707009, 50.8813984 ], [ 4.6699582, 50.8810782 ], [ 4.6698446, 50.8810154 ], [ 4.6696673, 50.8808999 ], [ 4.6693963, 50.8807325 ], [ 4.6691284, 50.8805661 ], [ 4.6686938, 50.8803133 ], [ 4.6685668, 50.8802184 ], [ 4.6681016, 50.8798765 ], [ 4.6678112, 50.8797243 ], [ 4.6677363, 50.8797056 ], [ 4.6673588, 50.879613 ], [ 4.6671292, 50.8795877 ], [ 4.6669813, 50.8795646 ], [ 4.6661186, 50.8794476 ], [ 4.6655808, 50.8793844 ], [ 4.6651262, 50.8793498 ], [ 4.6631903, 50.8792576 ], [ 4.6626095, 50.8792547 ], [ 4.6625493, 50.8792502 ], [ 4.6624853, 50.8792439 ], [ 4.6623528, 50.8792262 ], [ 4.6621932, 50.8791976 ], [ 4.6620025, 50.8791574 ], [ 4.6618839, 50.8791301 ], [ 4.6617661, 50.8790992 ], [ 4.661538, 50.8790272 ], [ 4.6614096, 50.8790339 ], [ 4.6613829, 50.879033 ], [ 4.6611771, 50.8790081 ], [ 4.6606765, 50.8789641 ], [ 4.6601115, 50.878926 ], [ 4.6598523, 50.8789209 ], [ 4.6595231, 50.8789302 ], [ 4.6592552, 50.8789495 ], [ 4.6588861, 50.8789859 ], [ 4.6586817, 50.8789922 ], [ 4.6582809, 50.8789869 ], [ 4.658116, 50.8789719 ], [ 4.6578038, 50.8789137 ], [ 4.6571881, 50.8787814 ], [ 4.6568748, 50.8787164 ], [ 4.6558502, 50.8785151 ], [ 4.6554589, 50.8784526 ], [ 4.6551134, 50.8785111 ], [ 4.6544269, 50.8786364 ], [ 4.6535198, 50.8788076 ], [ 4.6531866, 50.8788655 ], [ 4.6525866, 50.8789822 ], [ 4.6525355, 50.878987 ], [ 4.6523718, 50.8790002 ], [ 4.6523163, 50.8789977 ], [ 4.6521441, 50.8789748 ], [ 4.6520097, 50.8789506 ], [ 4.6515023, 50.8788401 ], [ 4.6510082, 50.8787147 ], [ 4.6506914, 50.8786494 ], [ 4.650203, 50.8785715 ], [ 4.6500057, 50.8785379 ], [ 4.6497287, 50.8785014 ], [ 4.649388, 50.8784654 ], [ 4.6494032, 50.8783794 ], [ 4.6483731, 50.8781746 ], [ 4.6475756, 50.8780416 ], [ 4.6446882, 50.8768835 ], [ 4.645212, 50.8759596 ], [ 4.6444234, 50.8757319 ], [ 4.6442849, 50.8756914 ], [ 4.6441857, 50.875589 ], [ 4.6441379, 50.8754618 ], [ 4.6441336, 50.8754181 ], [ 4.6441252, 50.8752575 ], [ 4.6441322, 50.8751434 ], [ 4.6440873, 50.8750187 ], [ 4.6440634, 50.8749321 ], [ 4.6440375, 50.8748751 ], [ 4.6440382, 50.8748435 ], [ 4.6440507, 50.87478 ], [ 4.6440739, 50.874732 ], [ 4.6441163, 50.874662 ], [ 4.6442245, 50.874541 ], [ 4.6444768, 50.8743786 ], [ 4.6445427, 50.8743018 ], [ 4.6446826, 50.8740448 ], [ 4.6450634, 50.8731916 ], [ 4.6450628, 50.8731377 ], [ 4.6450601, 50.8731056 ], [ 4.6450481, 50.8730661 ], [ 4.6449849, 50.8730053 ], [ 4.6449215, 50.872975 ], [ 4.6447453, 50.8729372 ], [ 4.6443695, 50.8728644 ], [ 4.644254, 50.8728372 ], [ 4.6441677, 50.8728144 ], [ 4.6441111, 50.8727954 ], [ 4.6440669, 50.8727757 ], [ 4.6438453, 50.872657 ], [ 4.6438186, 50.8726261 ], [ 4.643812, 50.8726038 ], [ 4.6438259, 50.8725673 ], [ 4.6438614, 50.8725189 ], [ 4.6439532, 50.8724302 ], [ 4.6439933, 50.872397 ], [ 4.6441127, 50.8723237 ], [ 4.6445614, 50.8720749 ], [ 4.6449518, 50.87189 ], [ 4.6450085, 50.8718616 ], [ 4.6450399, 50.8718414 ], [ 4.6454692, 50.871523 ], [ 4.6460643, 50.8690726 ], [ 4.6460971, 50.8689129 ], [ 4.6463387, 50.8683029 ], [ 4.6465838, 50.8675686 ], [ 4.6466053, 50.8674958 ], [ 4.6467259, 50.8672004 ], [ 4.6467399, 50.867137 ], [ 4.6467452, 50.8671226 ], [ 4.6468143, 50.8670183 ], [ 4.6479054, 50.8653115 ], [ 4.6465198, 50.8650193 ], [ 4.6469196, 50.8628927 ], [ 4.6468865, 50.8629112 ], [ 4.646367, 50.8611002 ], [ 4.6463118, 50.8611135 ], [ 4.6460234, 50.8611964 ], [ 4.646044, 50.8611123 ], [ 4.6460471, 50.8610738 ], [ 4.6460244, 50.8610494 ], [ 4.6460126, 50.8610403 ], [ 4.6454143, 50.8607819 ], [ 4.6451581, 50.8606615 ], [ 4.6448898, 50.860525 ], [ 4.6444369, 50.8602608 ], [ 4.6440471, 50.8600871 ], [ 4.6439755, 50.8600632 ], [ 4.6438253, 50.8600113 ], [ 4.643462, 50.85983 ], [ 4.6431296, 50.8596217 ], [ 4.6427938, 50.8594893 ], [ 4.6421806, 50.8592859 ], [ 4.641608, 50.859109 ], [ 4.6416014, 50.8590695 ], [ 4.6403072, 50.8558609 ] ] ] } }
]
}
